stn_code,mrt_station_english,mrt_station_chinese,mrt_line_english,mrt_line_chinese,onemap_query,SEARCHVAL,BLK_NO,ROAD_NAME,BUILDING,ADDRESS,POSTAL,X,Y,LATITUDE,LONGITUDE,LONGTITUDE
NS1,Jurong East,裕廊东,North South Line ,南北线,Jurong East MRT,JURONG EAST MRT STATION (EW24 / NS1),10,JURONG EAST STREET 12,JURONG EAST MRT STATION (EW24 / NS1),10 JURONG EAST STREET 12 JURONG EAST MRT STATION (EW24 / NS1) SINGAPORE 609690,609690,17869.0570516568,35038.9688695427,1.33315281585758,103.742286332403,103.742286332403
NS2,Bukit Batok,武吉巴督,North South Line,南北线,Bukit Batok MRT,BUKIT BATOK MRT STATION (NS2),10,BUKIT BATOK CENTRAL,BUKIT BATOK MRT STATION (NS2),10 BUKIT BATOK CENTRAL BUKIT BATOK MRT STATION (NS2) SINGAPORE 659958,659958,18679.3223191258,36794.9260214306,1.34903331201636,103.749566478309,103.749566478309
NS3,Bukit Gombak,武吉甘柏,North South Line,南北线,Bukit Gombak MRT,BUKIT GOMBAK MRT STATION (NS3),802,BUKIT BATOK WEST AVENUE 5,BUKIT GOMBAK MRT STATION (NS3),802 BUKIT BATOK WEST AVENUE 5 BUKIT GOMBAK MRT STATION (NS3) SINGAPORE 659083,659083,18926.9127006577,37854.0358848721,1.35861159094192,103.751790910733,103.751790910733
NS4,Choa Chu Kang,蔡厝港,North South Line,南北线,Choa Chu Kang MRT,CHOA CHU KANG MRT STATION (NS4),10,CHOA CHU KANG AVENUE 4,CHOA CHU KANG MRT STATION (NS4),10 CHOA CHU KANG AVENUE 4 CHOA CHU KANG MRT STATION (NS4) SINGAPORE 689810,689810,18101.2472041463,40812.1216052417,1.38536316540225,103.744370779756,103.744370779756
NS5,Yew Tee,油池,North South Line,南北线,Yew Tee MRT,YEW TEE MRT STATION (NS5),61,CHOA CHU KANG DRIVE,YEW TEE MRT STATION (NS5),61 CHOA CHU KANG DRIVE YEW TEE MRT STATION (NS5) SINGAPORE 689715,689715,18438.9831173802,42158.0181021616,1.39753506936297,103.747405150236,103.747405150236
NS7,Kranji,克兰芝,North South Line,南北线,Kranji MRT,KRANJI MRT STATION (NS7),960,WOODLANDS ROAD,KRANJI MRT STATION (NS7),960 WOODLANDS ROAD KRANJI MRT STATION (NS7) SINGAPORE 738702,738702,20078.5865077013,45204.5168451127,1.42508698073648,103.762137459497,103.762137459497
NS8,Marsiling,马西岭,North South Line,南北线,Marsiling MRT,MARSILING MRT STATION (NS8),71,WOODLANDS AVENUE 3,MARSILING MRT STATION (NS8),71 WOODLANDS AVENUE 3 MARSILING MRT STATION (NS8) SINGAPORE 739044,739044,21407.0413211482,46026.5125302058,1.43252114855026,103.774074641403,103.774074641403
NS9,Woodlands,兀兰,North South Line,南北线,Woodlands MRT,WOODLANDS MRT STATION (TE2),11,WOODLANDS SQUARE,WOODLANDS MRT STATION (TE2),11 WOODLANDS SQUARE WOODLANDS MRT STATION (TE2) SINGAPORE 737736,737736,22949.9191319831,46417.5223346148,1.43605761708128,103.787938777173,103.787938777173
NS10,Admiralty,海军部,North South Line,南北线,Admiralty MRT,ADMIRALTY MRT STATION (NS10),70,WOODLANDS AVENUE 7,ADMIRALTY MRT STATION (NS10),70 WOODLANDS AVENUE 7 ADMIRALTY MRT STATION (NS10) SINGAPORE 738344,738344,24402.3866267931,46918.506801948,1.44058856161847,103.800990519771,103.800990519771
NS11,Sembawang,三巴旺,North South Line,南北线,Sembawang MRT,SEMBAWANG MRT STATION (NS11),11,CANBERRA ROAD,SEMBAWANG MRT STATION (NS11),11 CANBERRA ROAD SEMBAWANG MRT STATION (NS11) SINGAPORE 759775,759775,26522.9882623879,47854.1998395547,1.44905082158502,103.820046140211,103.820046140211
NS12,Canberra,坎 贝 拉,North South Line,南北线,Canberra MRT,CANBERRA MRT STATION (NS12),11,CANBERRA LINK,CANBERRA MRT STATION (NS12),11 CANBERRA LINK CANBERRA MRT STATION (NS12) SINGAPORE 756972,756972,27597.5969376964,47193.6008830499,1.44307664075699,103.829702590959,103.829702590959
NS13,Yishun,义顺,North South Line,南北线,Yishun MRT,YISHUN MRT STATION (NS13),301,YISHUN AVENUE 2,YISHUN MRT STATION (NS13),301 YISHUN AVENUE 2 YISHUN MRT STATION (NS13) SINGAPORE 769093,769093,28187.6788169928,45686.0705381557,1.42944308477331,103.835005047246,103.835005047246
NS14,Khatib,卡迪,North South Line,南北线,Khatib MRT,KHATIB MRT STATION (NS14),201,YISHUN AVENUE 2,KHATIB MRT STATION (NS14),201 YISHUN AVENUE 2 KHATIB MRT STATION (NS14) SINGAPORE 769092,769092,27962.3108561579,44352.5679935999,1.41738337009565,103.832979908243,103.832979908243
NS15,Yio Chu Kang,杨厝港,North South Line,南北线,Yio Chu Kang MRT,YIO CHU KANG MRT STATION (NS15),3000,ANG MO KIO AVENUE 8,YIO CHU KANG MRT STATION (NS15),3000 ANG MO KIO AVENUE 8 YIO CHU KANG MRT STATION (NS15) SINGAPORE 569813,569813,29294.1262330338,40413.0626359228,1.38175587099132,103.84494727118,103.84494727118
NS16,Ang Mo Kio,宏茂桥,North South Line,南北线,Ang Mo Kio MRT,ANG MO KIO MRT STATION (NS16),2795,ANG MO KIO AVENUE 8,ANG MO KIO MRT STATION (NS16),2795 ANG MO KIO AVENUE 8 ANG MO KIO MRT STATION (NS16) SINGAPORE 569812,569812,29807.2611468043,39105.7359950263,1.36993284962262,103.84955809232,103.84955809232
NS17,Bishan,碧山,North South Line,南北线,Bishan MRT,BISHAN MRT STATION (CC15),17,BISHAN PLACE,BISHAN MRT STATION (CC15),17 BISHAN PLACE BISHAN MRT STATION (CC15) SINGAPORE 579842,579842,29760.7755471431,37047.1573323701,1.35131580146658,103.84914026532,103.84914026532
NS18,Braddell,布莱德,North South Line,南北线,Braddell MRT,BRADDELL MRT STATION (NS18),377,LORONG 1 TOA PAYOH,BRADDELL MRT STATION (NS18),377 LORONG 1 TOA PAYOH BRADDELL MRT STATION (NS18) SINGAPORE 319756,319756,29500.2349482412,35847.7719815206,1.3404690010277,103.846799083148,103.846799083148
NS19,Toa Payoh,大巴窑,North South Line,南北线,Toa Payoh MRT,TOA PAYOH MRT STATION (NS19),510,LORONG 6 TOA PAYOH,TOA PAYOH MRT STATION (NS19),510 LORONG 6 TOA PAYOH TOA PAYOH MRT STATION (NS19) SINGAPORE 319398,319398,29578.4890669128,34980.8962922301,1.33262928096888,103.847502198048,103.847502198048
NS20,Novena,诺维娜,North South Line,南北线,Novena MRT,NOVENA MRT STATION (NS20),250,THOMSON ROAD,NOVENA MRT STATION (NS20),250 THOMSON ROAD NOVENA MRT STATION (NS20) SINGAPORE 307642,307642,29169.3297925005,33633.1535391063,1.32044079120154,103.843825618748,103.843825618748
NS21,Newton,纽顿,North South Line,南北线,Newton MRT,NEWTON MRT STATION (NS21),49,SCOTTS ROAD,NEWTON MRT STATION (NS21),49 SCOTTS ROAD NEWTON MRT STATION (NS21) SINGAPORE 228234,228234,28519.2830723543,32735.0770371091,1.3123189224097,103.837984594021,103.837984594021
NS22,Orchard,乌节,North South Line,南北线,Orchard MRT,ORCHARD BOULEVARD MRT STATION (TE13),20,ORCHARD BOULEVARD,ORCHARD BOULEVARD MRT STATION (TE13),20 ORCHARD BOULEVARD ORCHARD BOULEVARD MRT STATION (TE13) SINGAPORE 248654,248654,26948.2945375377,31640.7552477568,1.30242224836722,103.823868523249,103.823868523249
NS23,Somerset,索美塞,North South Line,南北线,Somerset MRT,SOMERSET MRT STATION (NS23),1,SOMERSET ROAD,SOMERSET MRT STATION (NS23),1 SOMERSET ROAD SOMERSET MRT STATION (NS23) SINGAPORE 238162,238162,28641.8346576076,31402.1245223526,1.30026416739006,103.839085753124,103.839085753124
NS24,Dhoby Ghaut,多美歌,North South Line,南北线,Dhoby Ghaut MRT,DHOBY GHAUT MRT STATION (NS24),11,ORCHARD ROAD,DHOBY GHAUT MRT STATION (NS24),11 ORCHARD ROAD DHOBY GHAUT MRT STATION (NS24) SINGAPORE 238826,238826,29423.9804536467,31229.3163704202,1.29870132536119,103.846113677951,103.846113677951
NS25,City Hall,政府大厦,North South Line,南北线,City Hall MRT,CITY HALL MRT STATION (EW13 / NS25),150,NORTH BRIDGE ROAD,CITY HALL MRT STATION (EW13 / NS25),150 NORTH BRIDGE ROAD CITY HALL MRT STATION (EW13 / NS25) SINGAPORE 179100,179100,30144.2503791479,30591.9008128252,1.29293672227779,103.852585580366,103.852585580366
NS26,Raffles Place,莱佛士坊,North South Line,南北线,Raffles Place MRT,RAFFLES PLACE MRT STATION,5,RAFFLES PLACE,RAFFLES PLACE MRT STATION,5 RAFFLES PLACE RAFFLES PLACE MRT STATION SINGAPORE 048618,048618,30019.3313532807,29596.3437267561,1.28393326234538,103.851463066212,103.851463066212
NS27,Marina Bay,滨海湾,North South Line,南北线,Marina Bay MRT,MARINA BAY MRT STATION (NS27),21,PARK STREET,MARINA BAY MRT STATION (NS27),21 PARK STREET MARINA BAY MRT STATION (NS27) SINGAPORE 018925,018925,30367.9547207942,28764.4959340338,1.276410298755,103.854595522263,103.854595522263
NS28,Marina South Pier,滨海南码头,North South Line,南北线,Marina South Pier MRT,MARINA SOUTH PIER MRT STATION (NS28),33,MARINA COASTAL DRIVE,MARINA SOUTH PIER MRT STATION (NS28),33 MARINA COASTAL DRIVE MARINA SOUTH PIER MRT STATION (NS28) SINGAPORE 018948,018948,31241.8260070179,28169.2510934137,1.27102703612006,103.862447515736,103.862447515736
EW1,Pasir Ris,巴西立,East West Line,东西线,Pasir Ris MRT,PASIR RIS MRT STATION (EW1),10,PASIR RIS CENTRAL,PASIR RIS MRT STATION (EW1),10 PASIR RIS CENTRAL PASIR RIS MRT STATION (EW1) SINGAPORE 519634,519634,40905.597462655,39449.9823396821,1.37304331635804,103.949284527763,103.949284527763
EW2,Tampines,淡滨尼,East West Line,东西线,Tampines MRT,TAMPINES WEST MRT STATION (DT31),2,TAMPINES AVENUE 4,TAMPINES WEST MRT STATION (DT31),2 TAMPINES AVENUE 4 TAMPINES WEST MRT STATION (DT31) SINGAPORE 529683,529683,39698.5275852969,36406.0143331178,1.34551530560119,103.938436971222,103.938436971222
EW3,Simei,四美,East West Line,东西线,Simei MRT,SIMEI MRT STATION (EW3),30,SIMEI STREET 3,SIMEI MRT STATION (EW3),30 SIMEI STREET 3 SIMEI MRT STATION (EW3) SINGAPORE 529888,529888,41361.2281713123,36149.7527796105,1.34319707851829,103.953377214378,103.953377214378
EW4,Tanah Merah,丹那美拉,East West Line,东西线,Tanah Merah MRT,TANAH MERAH MRT STATION (EW4),920,NEW UPPER CHANGI ROAD,TANAH MERAH MRT STATION (EW4),920 NEW UPPER CHANGI ROAD TANAH MERAH MRT STATION (EW4) SINGAPORE 467356,467356,40579.0997793637,34379.4316836372,1.32718729074675,103.946348600798,103.946348600798
EW5,Bedok,勿洛,East West Line,东西线,Bedok MRT,SUNGEI BEDOK MRT STATION (TE31 / DT37),3,BEDOK ROAD,SUNGEI BEDOK MRT STATION (TE31 / DT37),3 BEDOK ROAD SUNGEI BEDOK MRT STATION (TE31 / DT37) SINGAPORE 469731,469731,41784.9899015203,33629.1483281609,1.32040148729112,103.957183823478,103.957183823478
EW6,Kembangan,景万岸,East West Line,东西线,Kembangan MRT,KEMBANGAN MRT STATION (EW6),55,SIMS AVENUE EAST,KEMBANGAN MRT STATION (EW6),55 SIMS AVENUE EAST KEMBANGAN MRT STATION (EW6) SINGAPORE 416551,416551,36861.9614935443,33699.3440501876,1.3210381335934,103.912947930851,103.912947930851
EW7,Eunos,友诺士,East West Line,东西线,Eunos MRT,EUNOS MRT STATION (EW7),30,EUNOS CRESCENT,EUNOS MRT STATION (EW7),30 EUNOS CRESCENT EUNOS MRT STATION (EW7) SINGAPORE 409423,409423,35779.9883453855,33560.5858968049,1.31978354916088,103.903225807255,103.903225807255
EW8,Paya Lebar,巴耶利峇,East West Line,东西线,Paya Lebar MRT,PAYA LEBAR MRT STATION (CC9),15,PAYA LEBAR ROAD,PAYA LEBAR MRT STATION (CC9),15 PAYA LEBAR ROAD PAYA LEBAR MRT STATION (CC9) SINGAPORE 409049,409049,34559.6916920897,33280.1181892157,1.3172473854035,103.892260753884,103.892260753884
EW9,Aljunied,阿裕尼,East West Line,东西线,Aljunied MRT,ALJUNIED MRT STATION (EW9),81,LORONG 25 GEYLANG,ALJUNIED MRT STATION (EW9),81 LORONG 25 GEYLANG ALJUNIED MRT STATION (EW9) SINGAPORE 388310,388310,33518.6048692847,33190.002017457,1.3164326118157,103.882906044385,103.882906044385
EW10,Kallang,加冷,East West Line,东西线,Kallang MRT,KALLANG MRT STATION (EW10),5,SIMS AVENUE,KALLANG MRT STATION (EW10),5 SIMS AVENUE KALLANG MRT STATION (EW10) SINGAPORE 387405,387405,32236.6038438473,32643.3302382641,1.31148890998818,103.871386541754,103.871386541754
EW11,Lavender,劳明达,East West Line,东西线,Lavender MRT,LAVENDER MRT STATION (EW11),50,KALLANG ROAD,LAVENDER MRT STATION (EW11),50 KALLANG ROAD LAVENDER MRT STATION (EW11) SINGAPORE 208699,208699,31277.4062337531,32188.7337866109,1.30737781747063,103.862767633888,103.862767633888
EW12,Bugis,武吉士,East West Line,东西线,Bugis MRT,BUGIS MRT STATION (EW12),220,VICTORIA STREET,BUGIS MRT STATION (EW12),220 VICTORIA STREET BUGIS MRT STATION (EW12) SINGAPORE 188022,188022,30491.6000699066,31424.3512713723,1.30046508509717,103.855706730933,103.855706730933
EW13,City Hall,政府大厦,East West Line,东西线,City Hall MRT,CITY HALL MRT STATION (EW13 / NS25),150,NORTH BRIDGE ROAD,CITY HALL MRT STATION (EW13 / NS25),150 NORTH BRIDGE ROAD CITY HALL MRT STATION (EW13 / NS25) SINGAPORE 179100,179100,30144.2503791479,30591.9008128252,1.29293672227779,103.852585580366,103.852585580366
EW14,Raffles Place,莱佛士坊,East West Line,东西线,Raffles Place MRT,RAFFLES PLACE MRT STATION,5,RAFFLES PLACE,RAFFLES PLACE MRT STATION,5 RAFFLES PLACE RAFFLES PLACE MRT STATION SINGAPORE 048618,048618,30019.3313532807,29596.3437267561,1.28393326234538,103.851463066212,103.851463066212
EW15,Tanjong Pagar,丹戎巴葛,East West Line,东西线,Tanjong Pagar MRT,TANJONG PAGAR MRT STATION (EW15),120,MAXWELL ROAD,TANJONG PAGAR MRT STATION (EW15),120 MAXWELL ROAD TANJONG PAGAR MRT STATION (EW15) SINGAPORE 069119,069119,29380.7567437869,28781.1883335691,1.27656131737246,103.845725186759,103.845725186759
EW16,Outram Park,欧南园,East West Line,东西线,Outram Park MRT,OUTRAM PARK MRT STATION,300,EU TONG SEN STREET,OUTRAM PARK MRT STATION,300 EU TONG SEN STREET OUTRAM PARK MRT STATION SINGAPORE 059816,059816,28749.3862473657,29188.1251812782,1.2802415328084,103.840052100136,103.840052100136
EW17,Tiong Bahru,中峇鲁,East West Line,东西线,Tiong Bahru MRT,TIONG BAHRU MRT STATION (EW17),300,TIONG BAHRU ROAD,TIONG BAHRU MRT STATION (EW17),300 TIONG BAHRU ROAD TIONG BAHRU MRT STATION (EW17) SINGAPORE 168731,168731,27346.3322650846,29836.2044219468,1.28610253615775,103.827445112419,103.827445112419
EW18,Redhill,红山,East West Line,东西线,Redhill MRT,REDHILL MRT STATION (EW18),920,TIONG BAHRU ROAD,REDHILL MRT STATION (EW18),920 TIONG BAHRU ROAD REDHILL MRT STATION (EW18) SINGAPORE 158792,158792,26155.053497511,30226.759782847,1.28963453412887,103.81674097205,103.81674097205
EW19,Queenstown,女皇镇,East West Line,东西线,Queenstown MRT,QUEENSTOWN MRT STATION (EW19),301,COMMONWEALTH AVENUE,QUEENSTOWN MRT STATION (EW19),301 COMMONWEALTH AVENUE QUEENSTOWN MRT STATION (EW19) SINGAPORE 149729,149729,24968.2673462247,30770.3911128063,1.29455085184931,103.806077155982,103.806077155982
EW20,Commonwealth,联邦,East West Line,东西线,Commonwealth MRT,COMMONWEALTH MRT STATION (EW20),375,COMMONWEALTH AVENUE,COMMONWEALTH MRT STATION (EW20),375 COMMONWEALTH AVENUE COMMONWEALTH MRT STATION (EW20) SINGAPORE 149735,149735,24094.7951433668,31649.5989169721,1.30250199924325,103.798228523336,103.798228523336
EW21,Buona Vista,波那维斯达,East West Line,东西线,Buona Vista MRT,BUONA VISTA MRT STATION (EW21),100,NORTH BUONA VISTA ROAD,BUONA VISTA MRT STATION (EW21),100 NORTH BUONA VISTA ROAD BUONA VISTA MRT STATION (EW21) SINGAPORE 139345,139345,23207.2578019593,32171.7150982097,1.3072237082044,103.790253514502,103.790253514502
EW22,Dover,杜弗,East West Line,东西线,Dover MRT,DOVER MRT STATION (EW22),200,COMMONWEALTH AVENUE WEST,DOVER MRT STATION (EW22),200 COMMONWEALTH AVENUE WEST DOVER MRT STATION (EW22) SINGAPORE 138677,138677,21914.5509301452,32634.1186314393,1.31140529320963,103.778637841909,103.778637841909
EW23,Clementi,金文泰,East West Line,东西线,Clementi MRT,CLEMENTI MRT STATION (EW23),3150,COMMONWEALTH AVENUE WEST,CLEMENTI MRT STATION (EW23),3150 COMMONWEALTH AVENUE WEST CLEMENTI MRT STATION (EW23) SINGAPORE 129580,129580,20418.1055078562,33044.4944669213,1.31511625277378,103.765191452888,103.765191452888
EW24,Jurong East,裕廊东,East West Line,东西线,Jurong East MRT,JURONG EAST MRT STATION (EW24 / NS1),10,JURONG EAST STREET 12,JURONG EAST MRT STATION (EW24 / NS1),10 JURONG EAST STREET 12 JURONG EAST MRT STATION (EW24 / NS1) SINGAPORE 609690,609690,17869.0570516568,35038.9688695427,1.33315281585758,103.742286332403,103.742286332403
EW25,Chinese Garden,裕华园,East West Line,东西线,Chinese Garden MRT,CHINESE GARDEN MRT STATION (EW25),151,BOON LAY WAY,CHINESE GARDEN MRT STATION (EW25),151 BOON LAY WAY CHINESE GARDEN MRT STATION (EW25) SINGAPORE 609959,609959,16790.7466322081,36056.3018932827,1.34235282081401,103.732596738363,103.732596738363
EW26,Lakeside,湖畔,East West Line,东西线,Lakeside MRT,LAKESIDE MRT STATION (EW26),201,BOON LAY WAY,LAKESIDE MRT STATION (EW26),201 BOON LAY WAY LAKESIDE MRT STATION (EW26) SINGAPORE 649845,649845,15494.4969534362,36267.1470333859,1.34425911493819,103.720949087456,103.720949087456
EW27,Boon Lay,文礼,East West Line,东西线,Boon Lay MRT,BOON LAY MRT STATION (EW27),301,BOON LAY WAY,BOON LAY MRT STATION (EW27),301 BOON LAY WAY BOON LAY MRT STATION (EW27) SINGAPORE 649846,649846,13837.9827195406,35641.9191215802,1.33860405469845,103.706064622772,103.706064622772
EW28,Pioneer,先驱,East West Line,东西线,Pioneer MRT,PIONEER MRT STATION (EW28),31,JURONG WEST STREET 63,PIONEER MRT STATION (EW28),31 JURONG WEST STREET 63 PIONEER MRT STATION (EW28) SINGAPORE 648310,648310,12864.9698331021,35529.5115483906,1.33758701106708,103.697321608474,103.697321608474
EW29,Joo Koon,裕群,East West Line,东西线,Joo Koon MRT,JOO KOON MRT STATION (EW29),91,JOO KOON CIRCLE,JOO KOON MRT STATION (EW29),91 JOO KOON CIRCLE JOO KOON MRT STATION (EW29) SINGAPORE 629116,629116,10756.3379743481,34438.2617777772,1.3277170408447,103.678374996165,103.678374996165
EW30,Gul Circle,卡尔圈 站,East West Line,东西线,Gul Circle MRT,GUL CIRCLE MRT STATION (EW30),7A,TUAS ROAD,GUL CIRCLE MRT STATION (EW30),7A TUAS ROAD GUL CIRCLE MRT STATION (EW30) SINGAPORE 637288,637288,8770.35150132887,33526.5733700171,1.31947090075208,103.660530461345,103.660530461345
EW31,Tuas Crescent,大士弯站,East West Line,东西线,Tuas Crescent MRT,TUAS CRESCENT MRT STATION (EW31),90,PIONEER ROAD,TUAS CRESCENT MRT STATION (EW31),90 PIONEER ROAD TUAS CRESCENT MRT STATION (EW31) SINGAPORE 639608,639608,7495.83786702435,33698.7263109088,1.32102695598684,103.649078235627,103.649078235627
EW32,Tuas West Road,大 士 西 路站,East West Line,东西线,Tuas West Road MRT,TUAS WEST ROAD MRT STATION (EW32),131,PIONEER ROAD,TUAS WEST ROAD MRT STATION (EW32),131 PIONEER ROAD TUAS WEST ROAD MRT STATION (EW32) SINGAPORE 639609,639609,6442.92861192208,34689.3517738562,1.32998504653102,103.639616648771,103.639616648771
EW33,Tuas Link,大士连路站,East West Line,东西线,Tuas Link MRT,TUAS LINK MRT STATION (EW33),20,TUAS WEST DRIVE,TUAS LINK MRT STATION (EW33),20 TUAS WEST DRIVE TUAS LINK MRT STATION (EW33) SINGAPORE 638418,638418,6150.86278806347,35894.3582222275,1.34088242451105,103.636991425128,103.636991425128
CG1,Expo,博览,Changi Airport Branch Line,樟宜机场支线,Expo MRT,EXPO MRT STATION (DT35),2,EXPO DRIVE,EXPO MRT STATION (DT35),2 EXPO DRIVE EXPO MRT STATION (DT35) SINGAPORE 485985,485985,42362.6034600167,35285.7083877847,1.33538252614956,103.962374747451,103.962374747451
CG2,Changi Airport,樟宜机场,Changi Airport Branch Line,樟宜机场支线,Changi Airport MRT,CHANGI AIRPORT MRT STATION (CG2),70,AIRPORT BOULEVARD,CHANGI AIRPORT MRT STATION (CG2),70 AIRPORT BOULEVARD CHANGI AIRPORT MRT STATION (CG2) SINGAPORE 819661,819661,45201.320394692,37729.1933764666,1.35747897447692,103.98788356959,103.98788356959
NE1,HarbourFront,港湾,North East Line,东北线,HarbourFront MRT,HARBOURFRONT MRT STATION (NE1 / CC29),81,TELOK BLANGAH ROAD,HARBOURFRONT MRT STATION (NE1 / CC29),81 TELOK BLANGAH ROAD HARBOURFRONT MRT STATION (NE1 / CC29) SINGAPORE 098867,098867,26688.0367021402,27545.8534260485,1.26538938374901,103.821530157095,103.821530157095
NE3,Outram Park,欧南园,North East Line,东北线,Outram Park MRT,OUTRAM PARK MRT STATION,300,EU TONG SEN STREET,OUTRAM PARK MRT STATION,300 EU TONG SEN STREET OUTRAM PARK MRT STATION SINGAPORE 059816,059816,28749.3862473657,29188.1251812782,1.2802415328084,103.840052100136,103.840052100136
NE4,Chinatown,牛车水,North East Line,东北线,Chinatown MRT,CHINATOWN MRT STATION (DT19),91,UPPER CROSS STREET,CHINATOWN MRT STATION (DT19),91 UPPER CROSS STREET CHINATOWN MRT STATION (DT19) SINGAPORE 058362,058362,29316.0490006926,29628.4789423887,1.28422391919085,103.845143798953,103.845143798953
NE5,Clarke Quay,克拉码头,North East Line,东北线,Clarke Quay MRT,CLARKE QUAY MRT STATION (NE5),10,EU TONG SEN STREET,CLARKE QUAY MRT STATION (NE5),10 EU TONG SEN STREET CLARKE QUAY MRT STATION (NE5) SINGAPORE 059815,059815,29473.1249443376,30088.7037861496,1.28838602407588,103.846555209694,103.846555209694
NE6,Dhoby Ghaut,多美歌,North East Line,东北线,Dhoby Ghaut MRT,DHOBY GHAUT MRT STATION (NS24),11,ORCHARD ROAD,DHOBY GHAUT MRT STATION (NS24),11 ORCHARD ROAD DHOBY GHAUT MRT STATION (NS24) SINGAPORE 238826,238826,29423.9804536467,31229.3163704202,1.29870132536119,103.846113677951,103.846113677951
NE7,Little India,小印度,North East Line,东北线,Little India MRT,LITTLE INDIA MRT STATION (NE7),60,BUKIT TIMAH ROAD,LITTLE INDIA MRT STATION (NE7),60 BUKIT TIMAH ROAD LITTLE INDIA MRT STATION (NE7) SINGAPORE 229900,229900,29817.2085683132,32124.850180177,1.30680019696174,103.849647059738,103.849647059738
NE8,Farrer Park,花拉公园,North East Line,东北线,Farrer Park MRT,FARRER PARK MRT STATION,250,RACE COURSE ROAD,FARRER PARK MRT STATION,250 RACE COURSE ROAD FARRER PARK MRT STATION SINGAPORE 218703,218703,30385.638003313,32825.9104390088,1.31314029963164,103.854754721344,103.854754721344
NE9,Boon Keng,文庆,North East Line,东北线,Boon Keng MRT,BOON KENG MRT STATION (NE9),900,SERANGOON ROAD,BOON KENG MRT STATION (NE9),900 SERANGOON ROAD BOON KENG MRT STATION (NE9) SINGAPORE 328260,328260,31144.045013207,33510.9746132698,1.31933570922514,103.861569454156,103.861569454156
NE10,Potong Pasir,波东巴西,North East Line,东北线,Potong Pasir MRT,POTONG PASIR MRT STATION (NE10),55,UPPER SERANGOON ROAD,POTONG PASIR MRT STATION (NE10),55 UPPER SERANGOON ROAD POTONG PASIR MRT STATION (NE10) SINGAPORE 347694,347694,31977.1667550961,34842.7250955887,1.33137949021368,103.869055656782,103.869055656782
NE11,Woodleigh,兀里,North East Line,东北线,Woodleigh MRT,WOODLEIGH MRT STATION (NE11),400,UPPER SERANGOON ROAD,WOODLEIGH MRT STATION (NE11),400 UPPER SERANGOON ROAD WOODLEIGH MRT STATION (NE11) SINGAPORE 347695,347695,32173.3185749156,35706.3793633711,1.33919004519388,103.87081830915,103.87081830915
NE12,Serangoon,实龙岗,North East Line,东北线,Serangoon MRT,SERANGOON MRT STATION (CC13),21,SERANGOON CENTRAL,SERANGOON MRT STATION (CC13),21 SERANGOON CENTRAL SERANGOON MRT STATION (CC13) SINGAPORE 556082,556082,32390.6852547908,36971.7545485683,1.35063361526525,103.872771660431,103.872771660431
NE13,Kovan,高文,North East Line,东北线,Kovan MRT,KOVAN MRT STATION (NE13),900,UPPER SERANGOON ROAD,KOVAN MRT STATION (NE13),900 UPPER SERANGOON ROAD KOVAN MRT STATION (NE13) SINGAPORE 534799,534799,33758.7578018578,38027.2794417515,1.36017917065237,103.885064856353,103.885064856353
NE14,Hougang,后港,North East Line,东北线,Hougang MRT,HOUGANG MRT STATION (NE14),80,HOUGANG CENTRAL,HOUGANG MRT STATION (NE14),80 HOUGANG CENTRAL HOUGANG MRT STATION (NE14) SINGAPORE 538758,538758,34572.8752453458,39256.1282835789,1.37129226620797,103.892380513029,103.892380513029
NE15,Buangkok,万国,North East Line,东北线,Buangkok MRT,BUANGKOK MRT STATION (NE15),10,SENGKANG CENTRAL,BUANGKOK MRT STATION (NE15),10 SENGKANG CENTRAL BUANGKOK MRT STATION (NE15) SINGAPORE 545061,545061,34655.4250568021,40536.3401684985,1.38287001971672,103.893122569706,103.893122569706
NE16,Sengkang,盛港,North East Line,东北线,Sengkang MRT,SENGKANG MRT STATION (NE16),5,SENGKANG SQUARE,SENGKANG MRT STATION (NE16),5 SENGKANG SQUARE SENGKANG MRT STATION (NE16) SINGAPORE 545062,545062,34918.2740132138,41512.1276907362,1.39169462601522,103.895484694279,103.895484694279
NE17,Punggol,榜鹅,North East Line,东北线,Punggol MRT,PUNGGOL COAST MRT STATION (NE18),101,NEW PUNGGOL ROAD,PUNGGOL COAST MRT STATION (NE18),101 NEW PUNGGOL ROAD PUNGGOL COAST MRT STATION (NE18) SINGAPORE 828604,828604,36552.0706724664,44081.1334630698,1.41492733388605,103.910166388177,103.910166388177
CC1,Dhoby Ghaut,多美歌,Circle Line,环线,Dhoby Ghaut MRT,DHOBY GHAUT MRT STATION (NS24),11,ORCHARD ROAD,DHOBY GHAUT MRT STATION (NS24),11 ORCHARD ROAD DHOBY GHAUT MRT STATION (NS24) SINGAPORE 238826,238826,29423.9804536467,31229.3163704202,1.29870132536119,103.846113677951,103.846113677951
CC2,Bras Basah,百胜,Circle Line,环线,Bras Basah MRT,BRAS BASAH MRT STATION (CC2),65,BRAS BASAH ROAD,BRAS BASAH MRT STATION (CC2),65 BRAS BASAH ROAD BRAS BASAH MRT STATION (CC2) SINGAPORE 189561,189561,29930.7673842637,31025.9015965667,1.29686168649656,103.850667371637,103.850667371637
CC3,Esplanade,滨海中心,Circle Line,环线,Esplanade MRT,ESPLANADE MRT STATION (CC3),90,BRAS BASAH ROAD,ESPLANADE MRT STATION (CC3),90 BRAS BASAH ROAD ESPLANADE MRT STATION (CC3) SINGAPORE 189562,189562,30421.9934839159,30671.6277715843,1.2936577245386,103.855081226245,103.855081226245
CC4,Promenade,宝门廊,Circle Line,环线,Promenade MRT,PROMENADE MRT STATION (CC4),2,TEMASEK AVENUE,PROMENADE MRT STATION (CC4),2 TEMASEK AVENUE PROMENADE MRT STATION (CC4) SINGAPORE 039193,039193,31008.3618750935,30709.2578067128,1.29399798636232,103.860350000188,103.860350000188
CC5,Nicoll Highway,尼诰大道,Circle Line,环线,Nicoll Highway MRT,NICOLL HIGHWAY MRT STATION (CC5),20,REPUBLIC AVENUE,NICOLL HIGHWAY MRT STATION (CC5),20 REPUBLIC AVENUE NICOLL HIGHWAY MRT STATION (CC5) SINGAPORE 038970,038970,31374.1649264134,31347.1528697051,1.29976684675139,103.86363696572,103.86363696572
CC6,Stadium,体育场,Circle Line,环线,Stadium MRT,STADIUM MRT STATION (CC6),3,STADIUM WALK,STADIUM MRT STATION (CC6),3 STADIUM WALK STADIUM MRT STATION (CC6) SINGAPORE 397692,397692,32676.3477050858,31683.9407594204,1.3028124684707,103.875337711089,103.875337711089
CC7,Mountbatten,蒙巴登,Circle Line,环线,Mountbatten MRT,MOUNTBATTEN MRT STATION (CC7),301,MOUNTBATTEN ROAD,MOUNTBATTEN MRT STATION (CC7),301 MOUNTBATTEN ROAD MOUNTBATTEN MRT STATION (CC7) SINGAPORE 398006,398006,33476.563426869,32058.7418466732,1.30620190525331,103.882528081052,103.882528081052
CC8,Dakota,达科达,Circle Line,环线,Dakota MRT,DAKOTA MRT STATION (CC8),201,OLD AIRPORT ROAD,DAKOTA MRT STATION (CC8),201 OLD AIRPORT ROAD DAKOTA MRT STATION (CC8) SINGAPORE 397973,397973,34204.0252977135,32318.1744557619,1.30854798388121,103.889064718377,103.889064718377
CC9,Paya Lebar,巴耶利峇,Circle Line,环线,Paya Lebar MRT,PAYA LEBAR MRT STATION (CC9),15,PAYA LEBAR ROAD,PAYA LEBAR MRT STATION (CC9),15 PAYA LEBAR ROAD PAYA LEBAR MRT STATION (CC9) SINGAPORE 409049,409049,34559.6916920897,33280.1181892157,1.3172473854035,103.892260753884,103.892260753884
CC10,MacPherson,麦波申,Circle Line,环线,MacPherson MRT,MACPHERSON MRT STATION (DT26),10,CIRCUIT LINK,MACPHERSON MRT STATION (DT26),10 CIRCUIT LINK MACPHERSON MRT STATION (DT26) SINGAPORE 378956,378956,34230.0104828067,34264.5435281098,1.32615024457361,103.889298600376,103.889298600376
CC11,Tai Seng,大成,Circle Line,环线,Tai Seng MRT,TAI SENG MRT STATION (CC11),33,UPPER PAYA LEBAR ROAD,TAI SENG MRT STATION (CC11),33 UPPER PAYA LEBAR ROAD TAI SENG MRT STATION (CC11) SINGAPORE 534803,534803,34128.792347569,35258.74881576,1.33514150139202,103.888389300191,103.888389300191
CC12,Bartley,巴特礼,Circle Line,环线,Bartley MRT,BARTLEY MRT STATION (CC12),90,BARTLEY ROAD,BARTLEY MRT STATION (CC12),90 BARTLEY ROAD BARTLEY MRT STATION (CC12) SINGAPORE 539788,539788,33214.9339675205,36072.5255325548,1.34250117805245,103.880177899184,103.880177899184
CC13,Serangoon,实龙岗,Circle Line,环线,Serangoon MRT,SERANGOON MRT STATION (CC13),21,SERANGOON CENTRAL,SERANGOON MRT STATION (CC13),21 SERANGOON CENTRAL SERANGOON MRT STATION (CC13) SINGAPORE 556082,556082,32390.6852547908,36971.7545485683,1.35063361526525,103.872771660431,103.872771660431
CC14,Lorong Chuan,罗弄泉,Circle Line,环线,Lorong Chuan MRT,LORONG CHUAN MRT STATION (CC14),150,SERANGOON AVENUE 3,LORONG CHUAN MRT STATION (CC14),150 SERANGOON AVENUE 3 LORONG CHUAN MRT STATION (CC14) SINGAPORE 554533,554533,31431.4054671209,37079.9443690311,1.35161217074555,103.864151938651,103.864151938651
CC15,Bishan,碧山,Circle Line,环线,Bishan MRT,BISHAN MRT STATION (CC15),17,BISHAN PLACE,BISHAN MRT STATION (CC15),17 BISHAN PLACE BISHAN MRT STATION (CC15) SINGAPORE 579842,579842,29760.7755471431,37047.1573323701,1.35131580146658,103.84914026532,103.84914026532
CC16,Marymount,玛丽蒙,Circle Line,环线,Marymount MRT,MARYMOUNT MRT STATION (CC16),60,MARYMOUNT ROAD,MARYMOUNT MRT STATION (CC16),60 MARYMOUNT ROAD MARYMOUNT MRT STATION (CC16) SINGAPORE 573993,573993,28679.3687734958,36758.7136478554,1.348707263451,103.839423132332,103.839423132332
CC17,Caldecott,加利谷,Circle Line,环线,Caldecott MRT,CALDECOTT MRT STATION (TE9),1,TOA PAYOH LINK,CALDECOTT MRT STATION (TE9),1 TOA PAYOH LINK CALDECOTT MRT STATION (TE9) SINGAPORE 297608,297608,28761.5758000361,35491.3431366347,1.33724561271722,103.840161782075,103.840161782075
CC19,Botanic Gardens,植物园,Circle Line,环线,Botanic Gardens MRT,BOTANIC GARDENS MRT STATION,100,CLUNY PARK ROAD,BOTANIC GARDENS MRT STATION,100 CLUNY PARK ROAD BOTANIC GARDENS MRT STATION SINGAPORE 257494,257494,26004.2227469468,33848.3595389649,1.32238699517166,103.815385463093,103.815385463093
CC20,Farrer Road,花拉路,Circle Line,环线,Farrer Road MRT,FARRER ROAD MRT STATION (CC20),71,FARRER ROAD,FARRER ROAD MRT STATION (CC20),71 FARRER ROAD FARRER ROAD MRT STATION (CC20) SINGAPORE 268857,268857,25113.2011973979,33301.2602245007,1.31743915158967,103.807379214161,103.807379214161
CC21,Holland Village,荷兰村,Circle Line,环线,Holland Village MRT,HOLLAND VILLAGE MRT STATION (CC21),200,HOLLAND AVENUE,HOLLAND VILLAGE MRT STATION (CC21),200 HOLLAND AVENUE HOLLAND VILLAGE MRT STATION (CC21) SINGAPORE 278995,278995,23891.2152273953,32726.4128267691,1.31224029631595,103.796399122407,103.796399122407
CC22,Buona Vista,波那维斯达,Circle Line,环线,Buona Vista MRT,BUONA VISTA MRT STATION (EW21),100,NORTH BUONA VISTA ROAD,BUONA VISTA MRT STATION (EW21),100 NORTH BUONA VISTA ROAD BUONA VISTA MRT STATION (EW21) SINGAPORE 139345,139345,23207.2578019593,32171.7150982097,1.3072237082044,103.790253514502,103.790253514502
CC23,one-north,纬壹,Circle Line,环线,one-north MRT,ONE-NORTH MRT STATION (CC23),9,AYER RAJAH AVENUE,ONE-NORTH MRT STATION (CC23),9 AYER RAJAH AVENUE ONE-NORTH MRT STATION (CC23) SINGAPORE 138647,138647,22896.0728127016,31346.4080956969,1.29975987493555,103.78745750525,103.78745750525
CC24,Kent Ridge,肯特岗,Circle Line,环线,Kent Ridge MRT,KENT RIDGE MRT STATION (CC24),301,SOUTH BUONA VISTA ROAD,KENT RIDGE MRT STATION (CC24),301 SOUTH BUONA VISTA ROAD KENT RIDGE MRT STATION (CC24) SINGAPORE 118177,118177,22575.0107144611,30657.9332947638,1.29353349887123,103.784572738173,103.784572738173
CC25,Haw Par Villa,虎豹别墅,Circle Line,环线,Haw Par Villa MRT,HAW PAR VILLA MRT STATION (CC25),270,PASIR PANJANG ROAD,HAW PAR VILLA MRT STATION (CC25),270 PASIR PANJANG ROAD HAW PAR VILLA MRT STATION (CC25) SINGAPORE 117396,117396,22261.1431040755,29445.802035436,1.28257135772488,103.781752725064,103.781752725064
CC26,Pasir Panjang,巴西班让,Circle Line,环线,Pasir Panjang MRT,PASIR PANJANG MRT STATION (CC26),119,PASIR PANJANG ROAD,PASIR PANJANG MRT STATION (CC26),119 PASIR PANJANG ROAD PASIR PANJANG MRT STATION (CC26) SINGAPORE 117424,117424,23329.2647148455,28742.7657615561,1.27621352233766,103.791350313288,103.791350313288
CC27,Labrador Park,拉柏多公园,Circle Line,环线,Labrador Park MRT,LABRADOR PARK MRT STATION,701,TELOK BLANGAH ROAD,LABRADOR PARK MRT STATION,701 TELOK BLANGAH ROAD LABRADOR PARK MRT STATION SINGAPORE 109029,109029,24672.1010278082,28317.5716898218,1.27236838626952,103.803416232089,103.803416232089
CC28,Telok Blangah,直落布兰雅,Circle Line,环线,Telok Blangah MRT,TELOK BLANGAH MRT STATION (CC28),463,TELOK BLANGAH ROAD,TELOK BLANGAH MRT STATION (CC28),463 TELOK BLANGAH ROAD TELOK BLANGAH MRT STATION (CC28) SINGAPORE 109028,109028,25378.2908018399,28133.7990515903,1.27070647717762,103.809761611219,103.809761611219
CC29,HarbourFront,港湾,Circle Line,环线,HarbourFront MRT,HARBOURFRONT MRT STATION (NE1 / CC29),81,TELOK BLANGAH ROAD,HARBOURFRONT MRT STATION (NE1 / CC29),81 TELOK BLANGAH ROAD HARBOURFRONT MRT STATION (NE1 / CC29) SINGAPORE 098867,098867,26688.0367021402,27545.8534260485,1.26538938374901,103.821530157095,103.821530157095
CE1,Bayfront,海湾舫,Circle Line Extension,环线延长线,Bayfront MRT,BAYFRONT MRT STATION (DT16 / CE1),11,BAYFRONT AVENUE,BAYFRONT MRT STATION (DT16 / CE1),11 BAYFRONT AVENUE BAYFRONT MRT STATION (DT16 / CE1) SINGAPORE 018957,018957,30867.0092712184,29368.6250332333,1.28187378879209,103.859079764874,103.859079764874
CE2,Marina Bay,滨海湾,Circle Line Extension,环线延长线,Marina Bay MRT,MARINA BAY MRT STATION (NS27),21,PARK STREET,MARINA BAY MRT STATION (NS27),21 PARK STREET MARINA BAY MRT STATION (NS27) SINGAPORE 018925,018925,30367.9547207942,28764.4959340338,1.276410298755,103.854595522263,103.854595522263
DT1,Bukit Panjang,武吉班让,Downtown Line,滨海市区线,Bukit Panjang MRT,BUKIT PANJANG MRT STATION (DT1),950,UPPER BUKIT TIMAH ROAD,BUKIT PANJANG MRT STATION (DT1),950 UPPER BUKIT TIMAH ROAD BUKIT PANJANG MRT STATION (DT1) SINGAPORE 678213,678213,20011.3981217332,40108.6837660205,1.37900211641036,103.761535114929,103.761535114929
DT2,Cashew,凯秀,Downtown Line,滨海市区线,Cashew MRT,CASHEW MRT STATION (DT2),1,CASHEW ROAD,CASHEW MRT STATION (DT2),1 CASHEW ROAD CASHEW MRT STATION (DT2) SINGAPORE 679696,679696,20334.5589111606,39092.8585418891,1.36981544925552,103.76443921414,103.76443921414
DT3,Hillview,山景,Downtown Line,滨海市区线,Hillview MRT,HILLVIEW MRT STATION (DT3),510,UPPER BUKIT TIMAH ROAD,HILLVIEW MRT STATION (DT3),510 UPPER BUKIT TIMAH ROAD HILLVIEW MRT STATION (DT3) SINGAPORE 678211,678211,20666.0675499607,38266.7898455672,1.36234486803558,103.767418254007,103.767418254007
DT5,Beauty World,美世界,Downtown Line,滨海市区线,Beauty World MRT,BEAUTY WORLD MRT STATION (DT5),101,UPPER BUKIT TIMAH ROAD,BEAUTY WORLD MRT STATION (DT5),101 UPPER BUKIT TIMAH ROAD BEAUTY WORLD MRT STATION (DT5) SINGAPORE 588216,588216,21598.1664763764,35931.2358860858,1.34122317558549,103.775794285083,103.775794285083
DT6,King Albert Park,阿尔柏王园,Downtown Line,滨海市区线,King Albert Park MRT,KING ALBERT PARK MRT STATION,2,BLACKMORE DRIVE,KING ALBERT PARK MRT STATION,2 BLACKMORE DRIVE KING ALBERT PARK MRT STATION SINGAPORE 599987,599987,22426.3220593724,35341.8887923621,1.335893496278,103.783235863233,103.783235863233
DT7,Sixth Avenue,第六道,Downtown Line,滨海市区线,Sixth Avenue MRT,SIXTH AVENUE MRT STATION (DT7),777,BUKIT TIMAH ROAD,SIXTH AVENUE MRT STATION (DT7),777 BUKIT TIMAH ROAD SIXTH AVENUE MRT STATION (DT7) SINGAPORE 269784,269784,23947.7493738988,34785.0233010761,1.33085764536226,103.796906838288,103.796906838288
DT8,Tan Kah Kee,陈嘉庚,Downtown Line,滨海市区线,Tan Kah Kee MRT,TAN KAH KEE MRT STATION (DT8),651,BUKIT TIMAH ROAD,TAN KAH KEE MRT STATION (DT8),651 BUKIT TIMAH ROAD TAN KAH KEE MRT STATION (DT8) SINGAPORE 266268,266268,25155.6221095249,34198.8053115103,1.32555623519898,103.807760304729,103.807760304729
DT9,Botanic Gardens,植物园,Downtown Line,滨海市区线,Botanic Gardens MRT,BOTANIC GARDENS MRT STATION,100,CLUNY PARK ROAD,BOTANIC GARDENS MRT STATION,100 CLUNY PARK ROAD BOTANIC GARDENS MRT STATION SINGAPORE 257494,257494,26004.2227469468,33848.3595389649,1.32238699517166,103.815385463093,103.815385463093
DT10,Stevens,史蒂芬,Downtown Line,滨海市区线,Stevens MRT,STEVENS MRT STATION (DT10),92,STEVENS ROAD,STEVENS MRT STATION (DT10),92 STEVENS ROAD STEVENS MRT STATION (DT10) SINGAPORE 257877,257877,27188.2299643802,33591.6608552355,1.32006555750626,103.826024401924,103.826024401924
DT11,Newton,纽顿,Downtown Line,滨海市区线,Newton MRT,NEWTON MRT STATION (NS21),49,SCOTTS ROAD,NEWTON MRT STATION (NS21),49 SCOTTS ROAD NEWTON MRT STATION (NS21) SINGAPORE 228234,228234,28519.2830723543,32735.0770371091,1.3123189224097,103.837984594021,103.837984594021
DT12,Little India,小印度,Downtown Line,滨海市区线,Little India MRT,LITTLE INDIA MRT STATION (NE7),60,BUKIT TIMAH ROAD,LITTLE INDIA MRT STATION (NE7),60 BUKIT TIMAH ROAD LITTLE INDIA MRT STATION (NE7) SINGAPORE 229900,229900,29817.2085683132,32124.850180177,1.30680019696174,103.849647059738,103.849647059738
DT13,Rochor,梧槽,Downtown Line,滨海市区线,Rochor MRT,ROCHOR MRT STATION (DT13),11,ROCHOR CANAL ROAD,ROCHOR MRT STATION (DT13),11 ROCHOR CANAL ROAD ROCHOR MRT STATION (DT13) SINGAPORE 188505,188505,30164.7018503863,31798.8766778279,1.30385218527656,103.852769428884,103.852769428884
DT14,Bugis,武吉士,Downtown Line,滨海市区线,Bugis MRT,BUGIS MRT STATION (EW12),220,VICTORIA STREET,BUGIS MRT STATION (EW12),220 VICTORIA STREET BUGIS MRT STATION (EW12) SINGAPORE 188022,188022,30491.6000699066,31424.3512713723,1.30046508509717,103.855706730933,103.855706730933
DT15,Promenade,宝门廊,Downtown Line,滨海市区线,Promenade MRT,PROMENADE MRT STATION (CC4),2,TEMASEK AVENUE,PROMENADE MRT STATION (CC4),2 TEMASEK AVENUE PROMENADE MRT STATION (CC4) SINGAPORE 039193,039193,31008.3618750935,30709.2578067128,1.29399798636232,103.860350000188,103.860350000188
DT16,Bayfront,海湾舫,Downtown Line,滨海市区线,Bayfront MRT,BAYFRONT MRT STATION (DT16 / CE1),11,BAYFRONT AVENUE,BAYFRONT MRT STATION (DT16 / CE1),11 BAYFRONT AVENUE BAYFRONT MRT STATION (DT16 / CE1) SINGAPORE 018957,018957,30867.0092712184,29368.6250332333,1.28187378879209,103.859079764874,103.859079764874
DT17,Downtown,市中心,Downtown Line,滨海市区线 ,Downtown MRT,DOWNTOWN MRT STATION (DT17),15,CENTRAL BOULEVARD,DOWNTOWN MRT STATION (DT17),15 CENTRAL BOULEVARD DOWNTOWN MRT STATION (DT17) SINGAPORE 018969,018969,30172.6688074525,29100.2087655049,1.27944638178916,103.852840829581,103.852840829581
DT18,Telok Ayer,直落亚逸,Downtown Line,滨海市区线,Telok Ayer MRT,TELOK AYER MRT STATION (DT18),7,CROSS STREET,TELOK AYER MRT STATION (DT18),7 CROSS STREET TELOK AYER MRT STATION (DT18) SINGAPORE 048416,048416,29706.1259155739,29390.1953907572,1.28206894769394,103.848648781083,103.848648781083
DT19,Chinatown,牛车水,Downtown Line,滨海市区线,Chinatown MRT,CHINATOWN MRT STATION (DT19),91,UPPER CROSS STREET,CHINATOWN MRT STATION (DT19),91 UPPER CROSS STREET CHINATOWN MRT STATION (DT19) SINGAPORE 058362,058362,29316.0490006926,29628.4789423887,1.28422391919085,103.845143798953,103.845143798953
DT20,Fort Canning,福康宁,Downtown Line,滨海市区线,Fort Canning MRT,FORT CANNING MRT STATION (DT20),170,RIVER VALLEY ROAD,FORT CANNING MRT STATION (DT20),170 RIVER VALLEY ROAD FORT CANNING MRT STATION (DT20) SINGAPORE 179038,179038,29225.6276065866,30541.6087720692,1.29248194822996,103.844331362465,103.844331362465
DT21,Bencoolen,明古连,Downtown Line,滨海市区线,Bencoolen MRT,BENCOOLEN MRT STATION (DT21),31,BENCOOLEN STREET,BENCOOLEN MRT STATION (DT21),31 BENCOOLEN STREET BENCOOLEN MRT STATION (DT21) SINGAPORE 189658,189658,29895.8639496444,31253.3258734122,1.29891843369422,103.850353762717,103.850353762717
DT22,Jalan Besar,惹兰勿刹,Downtown Line,滨海市区线,Jalan Besar MRT,JALAN BESAR MRT STATION (DT22),90,JALAN BESAR,JALAN BESAR MRT STATION (DT22),90 JALAN BESAR JALAN BESAR MRT STATION (DT22) SINGAPORE 208826,208826,30445.8529787809,31944.7496234626,1.3051713878069,103.855295713435,103.855295713435
DT23,Bendemeer,明地迷亚,Downtown Line,滨海市区线,Bendemeer MRT,BENDEMEER MRT STATION (DT23),11,KALLANG BAHRU,BENDEMEER MRT STATION (DT23),11 KALLANG BAHRU BENDEMEER MRT STATION (DT23) SINGAPORE 339356,339356,31300.7676084097,32884.7709222045,1.31367252847691,103.862977620945,103.862977620945
DT24,Geylang Bahru,芽笼峇鲁,Downtown Line,滨海市区线,Geylang Bahru MRT,GEYLANG BAHRU MRT STATION (DT24),541,KALLANG BAHRU,GEYLANG BAHRU MRT STATION (DT24),541 KALLANG BAHRU GEYLANG BAHRU MRT STATION (DT24) SINGAPORE 339355,339355,32262.8612591857,33728.3126899004,1.32130110228321,103.871622627142,103.871622627142
DT25,Mattar,玛达,Downtown Line,滨海市区线,Mattar MRT,MATTAR MRT STATION (DT25),60,MERPATI ROAD,MATTAR MRT STATION (DT25),60 MERPATI ROAD MATTAR MRT STATION (DT25) SINGAPORE 379314,379314,33556.5834402461,34344.8585332558,1.32687671501334,103.883247509542,103.883247509542
DT26,MacPherson,麦波申,Downtown Line,滨海市区线,MacPherson MRT,MACPHERSON MRT STATION (DT26),10,CIRCUIT LINK,MACPHERSON MRT STATION (DT26),10 CIRCUIT LINK MACPHERSON MRT STATION (DT26) SINGAPORE 378956,378956,34230.0104828067,34264.5435281098,1.32615024457361,103.889298600376,103.889298600376
DT27,Ubi,乌美,Downtown Line,滨海市区线,Ubi MRT,UBI MRT STATION (DT27),51,UBI AVENUE 2,UBI MRT STATION (DT27),51 UBI AVENUE 2 UBI MRT STATION (DT27) SINGAPORE 408899,408899,35334.8918333696,34687.4109907392,1.32997425973974,103.899226655439,103.899226655439
DT28,Kaki Bukit,加基武吉,Downtown Line,滨海市区线,Kaki Bukit MRT,KAKI BUKIT MRT STATION (DT28),30,KAKI BUKIT AVENUE 1,KAKI BUKIT MRT STATION (DT28),30 KAKI BUKIT AVENUE 1 KAKI BUKIT MRT STATION (DT28) SINGAPORE 415804,415804,36362.3782825153,35239.5522551257,1.33496735995428,103.908459338046,103.908459338046
DT29,Bedok North,勿洛北,Downtown Line,滨海市区线,Bedok North MRT,BEDOK NORTH MRT STATION (DT29),651,BEDOK NORTH ROAD,BEDOK NORTH MRT STATION (DT29),651 BEDOK NORTH ROAD BEDOK NORTH MRT STATION (DT29) SINGAPORE 479481,479481,37421.7438196167,35214.6803870108,1.33474211664091,103.91797832995,103.91797832995
DT30,Bedok Reservoir,勿洛蓄水池,Downtown Line,滨海市区线,Bedok Reservoir MRT,BEDOK RESERVOIR MRT STATION (DT30),371,BEDOK NORTH AVENUE 3,BEDOK RESERVOIR MRT STATION (DT30),371 BEDOK NORTH AVENUE 3 BEDOK RESERVOIR MRT STATION (DT30) SINGAPORE 469724,469724,39008.3131622663,35421.0408713054,1.33660782955099,103.932234623286,103.932234623286
DT31,Tampines West,淡滨尼西,Downtown Line,滨海市区线,Tampines West MRT,TAMPINES WEST MRT STATION (DT31),2,TAMPINES AVENUE 4,TAMPINES WEST MRT STATION (DT31),2 TAMPINES AVENUE 4 TAMPINES WEST MRT STATION (DT31) SINGAPORE 529683,529683,39698.5275852969,36406.0143331178,1.34551530560119,103.938436971222,103.938436971222
DT32,Tampines,淡滨尼,Downtown Line,滨海市区线,Tampines MRT,TAMPINES WEST MRT STATION (DT31),2,TAMPINES AVENUE 4,TAMPINES WEST MRT STATION (DT31),2 TAMPINES AVENUE 4 TAMPINES WEST MRT STATION (DT31) SINGAPORE 529683,529683,39698.5275852969,36406.0143331178,1.34551530560119,103.938436971222,103.938436971222
DT33,Tampines East,淡滨尼东,Downtown Line,滨海市区线,Tampines East MRT,TAMPINES EAST MRT STATION (DT33),20,TAMPINES AVENUE 7,TAMPINES EAST MRT STATION (DT33),20 TAMPINES AVENUE 7 TAMPINES EAST MRT STATION (DT33) SINGAPORE 529623,529623,41501.0748521937,37586.6177644413,1.35619148271544,103.9546344625,103.9546344625
DT34,Upper Changi,樟宜上段,Downtown Line,滨海市区线,Upper Changi MRT,UPPER CHANGI MRT STATION (DT34),690,UPPER CHANGI ROAD EAST,UPPER CHANGI MRT STATION (DT34),690 UPPER CHANGI ROAD EAST UPPER CHANGI MRT STATION (DT34) SINGAPORE 485990,485990,42262.187971171,35988.6568845119,1.34173977444995,103.961472788634,103.961472788634
DT35,Expo,博览,Downtown Line,滨海市区线,Expo MRT,EXPO MRT STATION (DT35),2,EXPO DRIVE,EXPO MRT STATION (DT35),2 EXPO DRIVE EXPO MRT STATION (DT35) SINGAPORE 485985,485985,42362.6034600167,35285.7083877847,1.33538252614956,103.962374747451,103.962374747451
BP1,Choa Chu Kang,蔡厝港,Bukit Panjang LRT,武吉班让轻轨线,Choa Chu Kang LRT,CHOA CHU KANG LRT STATION (BP1),15,CHOA CHU KANG AVENUE 4,CHOA CHU KANG LRT STATION (BP1),15 CHOA CHU KANG AVENUE 4 CHOA CHU KANG LRT STATION (BP1) SINGAPORE 689813,689813,18119.8205469949,40744.9184182286,1.38475541089131,103.74453769781,103.74453769781
BP2,South View,南山,Bukit Panjang LRT,武吉班让轻轨线,South View LRT,SOUTH VIEW LRT STATION (BP2),50,CHOA CHU KANG WAY,SOUTH VIEW LRT STATION (BP2),50 CHOA CHU KANG WAY SOUTH VIEW LRT STATION (BP2) SINGAPORE 688265,688265,18203.72427563,40252.0686228592,1.38029828742399,103.745291799824,103.745291799824
BP3,Keat Hong,吉丰,Bukit Panjang LRT,武吉班让轻轨线,Keat Hong LRT,KEAT HONG LRT STATION (BP3),30,CHOA CHU KANG WAY,KEAT HONG LRT STATION (BP3),30 CHOA CHU KANG WAY KEAT HONG LRT STATION (BP3) SINGAPORE 688266,688266,18622.5893422375,40064.6246900782,1.3786032506373,103.749055668925,103.749055668925
BP4,Teck Whye,德惠,Bukit Panjang LRT,武吉班让轻轨线,Teck Whye LRT,TECK WHYE LRT STATION (BP4),10,CHOA CHU KANG WAY,TECK WHYE LRT STATION (BP4),10 CHOA CHU KANG WAY TECK WHYE LRT STATION (BP4) SINGAPORE 688267,688267,19140.8000152688,39852.4607739244,1.37668467920808,103.753712232337,103.753712232337
BP5,Phoenix,凤凰,Bukit Panjang LRT,武吉班让轻轨线,Phoenix LRT,PHOENIX LRT STATION (BP5),40,CHOA CHU KANG ROAD,PHOENIX LRT STATION (BP5),40 CHOA CHU KANG ROAD PHOENIX LRT STATION (BP5) SINGAPORE 689483,689483,19617.4881601976,40065.9404090624,1.37861545104083,103.757995558346,103.757995558346
BP6,Bukit Panjang,武吉班让,Bukit Panjang LRT,武吉班让轻轨线,Bukit Panjang LRT,BUKIT PANJANG LRT STATION (BP6),11,PETIR ROAD,BUKIT PANJANG LRT STATION (BP6),11 PETIR ROAD BUKIT PANJANG LRT STATION (BP6) SINGAPORE 678268,678268,20185.8730407264,39989.791610267,1.37792694616982,103.763102931112,103.763102931112
BP7,Petir,柏提,Bukit Panjang LRT,武吉班让轻轨线,Petir LRT,PETIR LRT STATION (BP7),31,PETIR ROAD,PETIR LRT STATION (BP7),31 PETIR ROAD PETIR LRT STATION (BP7) SINGAPORE 678269,678269,20580.1479736092,39972.6518196631,1.37777204259082,103.766645782497,103.766645782497
BP8,Pending,秉定,Bukit Panjang LRT,武吉班让轻轨线,Pending LRT,PENDING LRT STATION (BP8),9,PENDING ROAD,PENDING LRT STATION (BP8),9 PENDING ROAD PENDING LRT STATION (BP8) SINGAPORE 678296,678296,21093.7792520449,39791.7041831557,1.37613574334988,103.771261175571,103.771261175571
BP9,Bangkit,万吉,Bukit Panjang LRT,武吉班让轻轨线,Bangkit LRT,BANGKIT LRT STATION (BP9),20,BUKIT PANJANG RING ROAD,BANGKIT LRT STATION (BP9),20 BUKIT PANJANG RING ROAD BANGKIT LRT STATION (BP9) SINGAPORE 679939,679939,21248.0565876467,40221.4484106153,1.38002223010088,103.772647370452,103.772647370452
BP10,Fajar,法嘉,Bukit Panjang LRT,武吉班让轻轨线,Fajar LRT,FAJAR LRT STATION (BP10),40,FAJAR ROAD,FAJAR LRT STATION (BP10),40 FAJAR ROAD FAJAR LRT STATION (BP10) SINGAPORE 679004,679004,21052.1874405267,40724.6743432153,1.38457317668026,103.770887223018,103.770887223018
BP11,Segar,实加,Bukit Panjang LRT,武吉班让轻轨线,Segar LRT,SEGAR LRT STATION (BP11),50,BUKIT PANJANG RING ROAD,SEGAR LRT STATION (BP11),50 BUKIT PANJANG RING ROAD SEGAR LRT STATION (BP11) SINGAPORE 679940,679940,20908.9104285147,41079.8350806553,1.38778508663361,103.769599685249,103.769599685249
BP12,Jelapang,泽拉邦,Bukit Panjang LRT,武吉班让轻轨线,Jelapang LRT,JELAPANG LRT STATION (BP12),70,BUKIT PANJANG RING ROAD,JELAPANG LRT STATION (BP12),70 BUKIT PANJANG RING ROAD JELAPANG LRT STATION (BP12) SINGAPORE 679941,679941,20345.1711083958,40964.2096878495,1.38673926997961,103.76453408646,103.76453408646
BP13,Senja,信佳,Bukit Panjang LRT,武吉班让轻轨线,Senja LRT,SENJA LRT STATION (BP13),90,BUKIT PANJANG RING ROAD,SENJA LRT STATION (BP13),90 BUKIT PANJANG RING ROAD SENJA LRT STATION (BP13) SINGAPORE 679942,679942,20101.4576015575,40520.3910598382,1.38272547134453,103.76234425472,103.76234425472
BP14,Ten Mile Junction,十里广场,Bukit Panjang LRT,武吉班让轻轨线,Junction 10,JUNCTION 10,1,WOODLANDS ROAD,JUNCTION 10,1 WOODLANDS ROAD JUNCTION 10 SINGAPORE 677899,677899,19859.2468093075,40256.2722101696,1.38033681049385,103.760167883439,103.760167883439
STC,Sengkang,盛港,Sengkang LRT,盛港轻轨线,Sengkang LRT,SENGKANG LRT STATION (STC),5,SENGKANG SQUARE,SENGKANG LRT STATION (STC),5 SENGKANG SQUARE SENGKANG LRT STATION (STC) SINGAPORE 545062,545062,34913.5878634388,41502.6996980961,1.39160936379906,103.895442583336,103.895442583336
SE1,Compassvale,康埔桦,Sengkang LRT,盛港轻轨线,Compassvale LRT,COMPASSVALE LRT STATION (SE1),10,COMPASSVALE STREET,COMPASSVALE LRT STATION (SE1),10 COMPASSVALE STREET COMPASSVALE LRT STATION (SE1) SINGAPORE 545055,545055,35475.5631351992,41821.5781126507,1.39449304450373,103.900492450944,103.900492450944
SE2,Rumbia,棕美,Sengkang LRT,盛港轻轨线,Rumbia LRT,RUMBIA LRT STATION (SE2),70,RIVERVALE DRIVE,RUMBIA LRT STATION (SE2),70 RIVERVALE DRIVE RUMBIA LRT STATION (SE2) SINGAPORE 545054,545054,36085.5523884585,41487.1566344369,1.39146849534132,103.90597359341,103.90597359341
SE3,Bakau,码高,Sengkang LRT,盛港轻轨线,Bakau LRT,BAKAU LRT STATION (SE3),50,RIVERVALE DRIVE,BAKAU LRT STATION (SE3),50 RIVERVALE DRIVE BAKAU LRT STATION (SE3) SINGAPORE 545053,545053,36023.4333449397,41102.9966866206,1.38799431054768,103.905415300171,103.905415300171
SE4,Kangkar,港脚,Sengkang LRT,盛港轻轨线,Kangkar LRT,KANGKAR LRT STATION (SE4),20,RIVERVALE DRIVE,KANGKAR LRT STATION (SE4),20 RIVERVALE DRIVE KANGKAR LRT STATION (SE4) SINGAPORE 545052,545052,35668.448192073,40656.7945456952,1.38395911688913,103.90222537044,103.90222537044
SE5,Ranggung,兰岗,Sengkang LRT,盛港轻轨线,Ranggung LRT,RANGGUNG LRT STATION (SE5),30,SENGKANG EAST AVENUE,RANGGUNG LRT STATION (SE5),30 SENGKANG EAST AVENUE RANGGUNG LRT STATION (SE5) SINGAPORE 545046,545046,35108.5940098073,40687.1253354792,1.38423355918277,103.897194667804,103.897194667804
SW1,Cheng Lim,振林,Sengkang LRT,盛港轻轨线,Cheng Lim LRT,CHENG LIM LRT STATION (SW1),5,ANCHORVALE STREET,CHENG LIM LRT STATION (SW1),5 ANCHORVALE STREET CHENG LIM LRT STATION (SW1) SINGAPORE 545047,545047,34730.4628995238,42018.8888330311,1.39627763344324,103.893797181731,103.893797181731
SW2,Farmway,农道,Sengkang LRT,盛港轻轨线,Farmway LRT,FARMWAY LRT STATION (SW2),35,ANCHORVALE STREET,FARMWAY LRT STATION (SW2),35 ANCHORVALE STREET FARMWAY LRT STATION (SW2) SINGAPORE 545048,545048,34230.5208312804,42117.5715403445,1.39717019591821,103.889304824196,103.889304824196
SW3,Kupang,古邦,Sengkang LRT,盛港轻轨线,Kupang LRT,KUPANG LRT STATION (SW3),60,FERNVALE STREET,KUPANG LRT STATION (SW3),60 FERNVALE STREET KUPANG LRT STATION (SW3) SINGAPORE 797697,797697,33334.8164311657,42232.8410119303,1.39821283031379,103.881256222255,103.881256222255
SW4,Thanggam,丹甘,Sengkang LRT,盛港轻轨线,Thanggam LRT,THANGGAM LRT STATION (SW4),40,FERNVALE ROAD,THANGGAM LRT STATION (SW4),40 FERNVALE ROAD THANGGAM LRT STATION (SW4) SINGAPORE 797699,797699,32709.2687078444,42133.9003911279,1.39731815581938,103.875635154729,103.875635154729
SW5,Fernvale,芬微,Sengkang LRT,盛港轻轨线,Fernvale LRT,FERNVALE LRT STATION (SW5),10,FERNVALE ROAD,FERNVALE LRT STATION (SW5),10 FERNVALE ROAD FERNVALE LRT STATION (SW5) SINGAPORE 797698,797698,32784.2284894353,41533.2285615634,1.39188588468304,103.876308630144,103.876308630144
SW6,Layar,拉雅,Sengkang LRT,盛港轻轨线,Layar LRT,LAYAR LRT STATION (SW6),11,SENGKANG WEST AVENUE,LAYAR LRT STATION (SW6),11 SENGKANG WEST AVENUE LAYAR LRT STATION (SW6) SINGAPORE 797700,797700,33198.3233218081,41554.6826597638,1.39207983659997,103.880029600546,103.880029600546
SW7,Tongkang,同港,Sengkang LRT,盛港轻轨线,Tongkang LRT,TONGKANG LRT STATION (SW7),80,SENGKANG EAST AVENUE,TONGKANG LRT STATION (SW7),80 SENGKANG EAST AVENUE TONGKANG LRT STATION (SW7) SINGAPORE 545050,545050,33845.4132231614,41252.6175956074,1.38934794658941,103.885844150116,103.885844150116
SW8,Renjong,仁宗,Sengkang LRT,盛港轻轨线,Renjong LRT,RENJONG LRT STATION (SW8),60,SENGKANG EAST AVENUE,RENJONG LRT STATION (SW8),60 SENGKANG EAST AVENUE RENJONG LRT STATION (SW8) SINGAPORE 545049,545049,34377.0569484383,40959.8985281233,1.38670058991904,103.89062131608,103.89062131608
PTC,Punggol,榜鹅,Punggol LRT,榜鹅轻轨线,Punggol LRT,PUNGGOL LRT STATION (PTC),70,PUNGGOL CENTRAL,PUNGGOL LRT STATION (PTC),70 PUNGGOL CENTRAL PUNGGOL LRT STATION (PTC) SINGAPORE 828868,828868,35689.1389922583,43004.9202214088,1.40519470149606,103.902411911915,103.902411911915
PE1,Cove,海湾,Punggol LRT,榜鹅轻轨线,Cove LRT,COVE LRT STATION (PE1),50,PUNGGOL FIELD,COVE LRT STATION (PE1),50 PUNGGOL FIELD COVE LRT STATION (PE1) SINGAPORE 828858,828858,36084.2289814064,42351.133770803,1.39928198837342,103.905961941214,103.905961941214
PE2,Meridian,丽园,Punggol LRT,榜鹅轻轨线,Meridian LRT,MERIDIAN LRT STATION (PE2),60,PUNGGOL FIELD,MERIDIAN LRT STATION (PE2),60 PUNGGOL FIELD MERIDIAN LRT STATION (PE2) SINGAPORE 828857,828857,36416.793337211,42089.08824775,1.3969120498774,103.908950224489,103.908950224489
PE3,Coral Edge,珊瑚,Punggol LRT,榜鹅轻轨线,Coral Edge LRT,CORAL EDGE LRT STATION (PE3),70,PUNGGOL FIELD,CORAL EDGE LRT STATION (PE3),70 PUNGGOL FIELD CORAL EDGE LRT STATION (PE3) SINGAPORE 828856,828856,36820.844465619,41757.0644781347,1.39390922863313,103.912580845515,103.912580845515
PE4,Riviera,里维拉,Punggol LRT,榜鹅轻轨线,Riviera LRT,RIVIERA LRT STATION (PE4),40,PUNGGOL EAST,RIVIERA LRT STATION (PE4),40 PUNGGOL EAST RIVIERA LRT STATION (PE4) SINGAPORE 828852,828852,37220.1990320655,41824.5905639976,1.39451978540251,103.916169381157,103.916169381157
PE5,Kadaloor,卡达鲁,Punggol LRT,榜鹅轻轨线,Kadaloor LRT,KADALOOR LRT STATION (PE5),60,PUNGGOL DRIVE,KADALOOR LRT STATION (PE5),60 PUNGGOL DRIVE KADALOOR LRT STATION (PE5) SINGAPORE 828853,828853,37265.3166702027,42376.2865863442,1.39950910636258,103.916574974234,103.916574974234
PE6,Oasis,绿洲,Punggol LRT,榜鹅轻轨线,Oasis LRT,OASIS LRT STATION (PE6),50,PUNGGOL DRIVE,OASIS LRT STATION (PE6),50 PUNGGOL DRIVE OASIS LRT STATION (PE6) SINGAPORE 828854,828854,36837.1174417054,42683.4020451903,1.40228667971123,103.912727352412,103.912727352412
PE7,Damai,达迈,Punggol LRT,榜鹅轻轨线,Damai LRT,DAMAI LRT STATION (PE7),40,PUNGGOL DRIVE,DAMAI LRT STATION (PE7),40 PUNGGOL DRIVE DAMAI LRT STATION (PE7) SINGAPORE 828855,828855,36378.1826799456,43009.3794218432,1.40523483636957,103.908603542566,103.908603542566
PW1,Sam Kee,三记,Punggol LRT,榜鹅轻轨线,Sam Kee LRT,SAM KEE LRT STATION (PW1),10,SENTUL CRESCENT,SAM KEE LRT STATION (PW1),10 SENTUL CRESCENT SAM KEE LRT STATION (PW1) SINGAPORE 828851,828851,35958.3967099339,43493.4470222741,1.40961268528804,103.904831550608,103.904831550608
PW2,Teck Lee,德利,Punggol LRT,榜鹅轻轨线,Teck Lee LRT,TECK LEE LRT STATION (PW2),101,PONGGOL SEVENTEENTH AVENUE,TECK LEE LRT STATION (PW2),101 PONGGOL SEVENTEENTH AVENUE TECK LEE LRT STATION (PW2) SINGAPORE 828861,828861,36152.699307289,43842.6720870361,1.4127708937463,103.906577622768,103.906577622768
PW3,Punggol Point,榜鹅坊,Punggol LRT,榜鹅轻轨线,Punggol Point LRT,PUNGGOL POINT LRT STATION (PW3),81,PUNGGOL WAY,PUNGGOL POINT LRT STATION (PW3),81 PUNGGOL WAY PUNGGOL POINT LRT STATION (PW3) SINGAPORE 828644,828644,36160.8274716362,44293.556079682,1.41684852031206,103.906650789313,103.906650789313
PW4,Samudera,山姆,Punggol LRT,榜鹅轻轨线,Samudera LRT,SAMUDERA LRT STATION (PW4),61,PUNGGOL WAY,SAMUDERA LRT STATION (PW4),61 PUNGGOL WAY SAMUDERA LRT STATION (PW4) SINGAPORE 828645,828645,35660.6597858425,44188.8484394047,1.41590172160383,103.902156317163,103.902156317163
PW5,Nibong,尼蒙,Punggol LRT,榜鹅轻轨线,Nibong LRT,NIBONG LRT STATION (PW5),41,PUNGGOL WAY,NIBONG LRT STATION (PW5),41 PUNGGOL WAY NIBONG LRT STATION (PW5) SINGAPORE 828862,828862,35455.6253116447,43743.0799781512,1.41187040942087,103.900313788123,103.900313788123
PW6,Sumang,苏芒,Punggol LRT,榜鹅轻轨线,Sumang LRT,SUMANG LRT STATION (PW6),31,PUNGGOL WAY,SUMANG LRT STATION (PW6),31 PUNGGOL WAY SUMANG LRT STATION (PW6) SINGAPORE 828863,828863,35260.291393281,43365.130112553,1.40845241943079,103.898558450395,103.898558450395
PW7,Soo Teck,树德,Punggol LRT,榜鹅轻轨线,Soo Teck LRT,SOO TECK LRT STATION (PW7),21,PUNGGOL WAY,SOO TECK LRT STATION (PW7),21 PUNGGOL WAY SOO TECK LRT STATION (PW7) SINGAPORE 828864,828864,35119.198004419,43019.1258336715,1.40532331860455,103.897290522033,103.897290522033
TE1,Woodlands North ,兀 兰 北,Thomson-East Coast Line,汤申-东海岸线,Woodlands North MRT,WOODLANDS NORTH MRT STATION (TE1),20,WOODLANDS NORTH COAST ROAD,WOODLANDS NORTH MRT STATION (TE1),20 WOODLANDS NORTH COAST ROAD WOODLANDS NORTH MRT STATION (TE1) SINGAPORE 737668,737668,22699.9912448721,47770.3945726696,1.44829245259621,103.785692682441,103.785692682441
TE2,Woodlands ,兀 兰,Thomson-East Coast Line,汤申-东海岸线,Woodlands MRT,WOODLANDS MRT STATION (TE2),11,WOODLANDS SQUARE,WOODLANDS MRT STATION (TE2),11 WOODLANDS SQUARE WOODLANDS MRT STATION (TE2) SINGAPORE 737736,737736,22949.9191319831,46417.5223346148,1.43605761708128,103.787938777173,103.787938777173
TE3,Woodlands South ,兀 兰 南,Thomson-East Coast Line,汤申-东海岸线,Woodlands South MRT,WOODLANDS SOUTH MRT STATION (TE3),30,WOODLANDS DRIVE 17,WOODLANDS SOUTH MRT STATION (TE3),30 WOODLANDS DRIVE 17 WOODLANDS SOUTH MRT STATION (TE3) SINGAPORE 737741,737741,23542.5545697259,45459.758821588,1.42739605281442,103.79326432221,103.79326432221
