mall_name,SEARCHVAL,BLK_NO,ROAD_NAME,BUILDING,ADDRESS,POSTAL,X,Y,LATITUDE,LONGITUDE,LONGTITUDE
100 AM,100 AM,100,TRAS STREET,100 AM,100 TRAS STREET 100 AM SINGAPORE 079027,079027,29131.8164707171,28573.4721462838,1.27468281482263,103.843488359469,103.843488359469
313 Somerset,313 @ SOMERSET,313,ORCHARD ROAD,313 @ SOMERSET,313 ORCHARD ROAD 313 @ SOMERSET SINGAPORE 238895,238895,28561.1386390822,31485.0772309396,1.30101436404056,103.838360664485,103.838360664485
Aperia,APERIA,8,KALLANG AVENUE,APERIA,8 KALLANG AVENUE APERIA SINGAPORE 339509,339509,31406.7146015475,32574.5211833753,1.31086672816827,103.863929573292,103.863929573292
Balestier Hill Shopping Centre,BALESTIER HILL SHOPPING CENTRE,2A,BALESTIER ROAD,BALESTIER HILL SHOPPING CENTRE,2A BALESTIER ROAD BALESTIER HILL SHOPPING CENTRE SINGAPORE 321002,321002,29159.9587036697,34265.8946909029,1.32616307866261,103.843741438467,103.843741438467
Bugis Cube,BUGIS CUBE,470,NORTH BRIDGE ROAD,BUGIS CUBE,470 NORTH BRIDGE ROAD BUGIS CUBE SINGAPORE 188735,188735,30483.6570850834,31167.3475166354,1.2981408343975,103.855635339249,103.855635339249
Bugis Junction,BUGIS JUNCTION,200,VICTORIA STREET,BUGIS JUNCTION,200 VICTORIA STREET BUGIS JUNCTION SINGAPORE 188021,188021,30458.7085178969,31274.8305191435,1.29911287475873,103.855411173758,103.855411173758
Bugis+,BUGIS BACKPACKERS HOSTEL,162B,ROCHOR ROAD,BUGIS BACKPACKERS HOSTEL,162B ROCHOR ROAD BUGIS BACKPACKERS HOSTEL SINGAPORE 188437,188437,30432.1584716914,31478.1598162092,1.30095171530648,103.855172625542,103.855172625542
Capitol Piazza,CAPITOL PIAZZA,13,STAMFORD ROAD,CAPITOL PIAZZA,13 STAMFORD ROAD CAPITOL PIAZZA SINGAPORE 178905,178905,29996.9452433269,30607.61522354,1.29307884763132,103.851261982149,103.851261982149
Cathay Cineleisure Orchard,CATHAY CINELEISURE ORCHARD,8,GRANGE ROAD,CATHAY CINELEISURE ORCHARD,8 GRANGE ROAD CATHAY CINELEISURE ORCHARD SINGAPORE 239695,239695,28346.2346228976,31541.100151198,1.30152101873533,103.836429655016,103.836429655016
Central Mall,CENTRAL MALL,3,MAGAZINE ROAD,CENTRAL MALL,3 MAGAZINE ROAD CENTRAL MALL SINGAPORE 059570,059570,29020.0801506015,30129.3543239105,1.2887536712464,103.842484418198,103.842484418198
Centrepoint,THE CENTREPOINT,176,ORCHARD ROAD,THE CENTREPOINT,176 ORCHARD ROAD THE CENTREPOINT SINGAPORE 238843,238843,28716.7630815674,31591.6722616088,1.30197836876806,103.839759023144,103.839759023144
City Square Mall,CITY SQUARE MALL,180,KITCHENER ROAD,CITY SQUARE MALL,180 KITCHENER ROAD CITY SQUARE MALL SINGAPORE 208539,208539,30593.6748798871,32635.8044067919,1.31142103107683,103.856624019991,103.856624019991
City Gate,CITY GATE,371,BEACH ROAD,CITY GATE,371 BEACH ROAD CITY GATE SINGAPORE 199597,199597,31228.8929515947,31629.0129348133,1.30231590504573,103.862331661034,103.862331661034
CityLink Mall,CITYLINK MALL,1,RAFFLES LINK,CITYLINK MALL,1 RAFFLES LINK CITYLINK MALL SINGAPORE 039393,039393,30320.972393252,30574.3218035102,1.2927777312893,103.854173501417,103.854173501417
Duo,DUO GALLERIA,7,FRASER STREET,DUO GALLERIA,7 FRASER STREET DUO GALLERIA SINGAPORE 189356,189356,30791.5255810972,31321.438068511,1.29953434891664,103.85840168774,103.85840168774
Far East Plaza,FAR EAST PLAZA,14,SCOTTS ROAD,FAR EAST PLAZA,14 SCOTTS ROAD FAR EAST PLAZA SINGAPORE 228213,228213,28052.7910912242,32166.5070981272,1.30717698071189,103.833792932243,103.833792932243
Funan,FUNAN,107,NORTH BRIDGE ROAD,FUNAN,107 NORTH BRIDGE ROAD FUNAN SINGAPORE 179105,179105,29855.3625422399,30416.1814862192,1.29134759697794,103.849989790085,103.849989790085
Great World City,GREAT WORLD CITY,1,KIM SENG PROMENADE,GREAT WORLD CITY,1 KIM SENG PROMENADE GREAT WORLD CITY SINGAPORE 237994,237994,27855.7183074635,30645.6325677894,1.29342272650003,103.832022146655,103.832022146655
HDB Hub,HDB HUB,460,LORONG 6 TOA PAYOH,HDB HUB,460 LORONG 6 TOA PAYOH HDB HUB SINGAPORE 310460,310460,29839.7194126267,34912.8489311524,1.33201387005935,103.84984949662,103.84984949662
Holland Road Shopping Centre,HOLLAND ROAD SHOPPING CENTRE,211,HOLLAND AVENUE,HOLLAND ROAD SHOPPING CENTRE,211 HOLLAND AVENUE HOLLAND ROAD SHOPPING CENTRE SINGAPORE 278967,278967,23776.8098159395,32509.3758863099,1.31027747574118,103.795371163103,103.795371163103
ION Orchard,ION ORCHARD,2,ORCHARD TURN,ION ORCHARD,2 ORCHARD TURN ION ORCHARD SINGAPORE 238801,238801,27856.8520553298,31812.9728713278,1.30397974144505,103.832032328465,103.832032328465
Junction 8,JUNCTION 8 SHOPPING CENTRE,9,BISHAN PLACE,JUNCTION 8 SHOPPING CENTRE,9 BISHAN PLACE JUNCTION 8 SHOPPING CENTRE SINGAPORE 579837,579837,29718.5095465565,36954.8769997768,1.3504812534505,103.848760473211,103.848760473211
Knightsbridge,KNIGHTSBRIDGE,270,ORCHARD ROAD,KNIGHTSBRIDGE,270 ORCHARD ROAD KNIGHTSBRIDGE SINGAPORE 238857,238857,28330.0158265028,31702.7720460277,1.3029831225958,103.836283923443,103.836283923443
Liat Towers,LIAT TOWERS,541,ORCHARD ROAD,LIAT TOWERS,541 ORCHARD ROAD LIAT TOWERS SINGAPORE 238881,238881,27711.0892851558,31935.4330472704,1.30508722710852,103.830722581168,103.830722581168
Lucky Plaza,LUCKY PLAZA,304,ORCHARD ROAD,LUCKY PLAZA,304 ORCHARD ROAD LUCKY PLAZA SINGAPORE 238863,238863,28071.6446550656,31871.1689420138,1.30450604646634,103.833962339817,103.833962339817
Marina Bay Sands,MARINA BAY SANDS,1,BAYFRONT AVENUE,MARINA BAY SANDS,1 BAYFRONT AVENUE MARINA BAY SANDS SINGAPORE 018971,018971,31059.4625855722,29543.3804153632,1.28345419690844,103.860809048956,103.860809048956
Shoppes at Marina Bay Sands,THE SHOPPES AT MARINA BAY SANDS,2,BAYFRONT AVENUE,THE SHOPPES AT MARINA BAY SANDS,2 BAYFRONT AVENUE THE SHOPPES AT MARINA BAY SANDS SINGAPORE 018972,018972,30856.1576845003,29629.71109147,1.28423496027027,103.858982282698,103.858982282698
Marina Bay Financial Centre Tower 3,MARINA BAY FINANCIAL CENTRE (TOWER 3),12,MARINA BOULEVARD,MARINA BAY FINANCIAL CENTRE (TOWER 3),12 MARINA BOULEVARD MARINA BAY FINANCIAL CENTRE (TOWER 3) SINGAPORE 018982,018982,30352.6026481129,29064.6662526764,1.27912493489912,103.854457600432,103.854457600432
Marina Bay Link Mall,MARINA BAY LINK MALL,8A,MARINA BOULEVARD,MARINA BAY LINK MALL,8A MARINA BOULEVARD MARINA BAY LINK MALL SINGAPORE 018984,018984,30231.5229646396,29187.7704102397,1.28023825446086,103.853369662547,103.853369662547
Marina One,MARINA ONE EAST TOWER,7,STRAITS VIEW,MARINA ONE EAST TOWER,7 STRAITS VIEW MARINA ONE EAST TOWER SINGAPORE 018936,018936,30173.876530271,28929.9200599995,1.27790635042143,103.852851669795,103.852851669795
Marina Square,MARINA SQUARE,6,RAFFLES BOULEVARD,MARINA SQUARE,6 RAFFLES BOULEVARD MARINA SQUARE SINGAPORE 039594,039594,30811.1659309082,30472.3321676366,1.29185533273026,103.85857808906,103.85857808906
Millenia Walk,MILLENIA WALK,9,RAFFLES BOULEVARD,MILLENIA WALK,9 RAFFLES BOULEVARD MILLENIA WALK SINGAPORE 039596,039596,30938.8002067907,30555.2769762799,1.29260544462492,103.859724944443,103.859724944443
Mustafa Centre,MUSTAFA CENTRE,145,SYED ALWI ROAD,MUSTAFA CENTRE,145 SYED ALWI ROAD MUSTAFA CENTRE SINGAPORE 207704,207704,30445.309607937,32491.0717166401,1.31011213190394,103.855290873926,103.855290873926
Ngee Ann City,NGEE ANN CITY,391,ORCHARD ROAD,NGEE ANN CITY,391 ORCHARD ROAD NGEE ANN CITY SINGAPORE 238872,238872,28207.3720752392,31620.7876102384,1.30224168528687,103.835181912297,103.835181912297
Orchard Central,ORCHARD CENTRAL,181,ORCHARD ROAD,ORCHARD CENTRAL,181 ORCHARD ROAD ORCHARD CENTRAL SINGAPORE 238896,238896,28680.6729301102,31465.6765127573,1.30083890839245,103.839434733899,103.839434733899
Orchard Gateway,ORCHARD GATEWAY,277,ORCHARD ROAD,ORCHARD GATEWAY,277 ORCHARD ROAD ORCHARD GATEWAY SINGAPORE 238858,238858,28681.5684992122,31421.9269572161,1.30044325279546,103.839442780042,103.839442780042
Orchard Plaza,ORCHARD PLAZA,150,ORCHARD ROAD,ORCHARD PLAZA,150 ORCHARD ROAD ORCHARD PLAZA SINGAPORE 238841,238841,28871.5825470258,31511.9399756845,1.30125729409965,103.841150144584,103.841150144584
Midpoint Orchard,MIDPOINT ORCHARD,220,ORCHARD ROAD,MIDPOINT ORCHARD,220 ORCHARD ROAD MIDPOINT ORCHARD SINGAPORE 238852,238852,28594.4257633714,31570.5982082132,1.30178778502846,103.838659766022,103.838659766022
Palais Renaissance,PALAIS RENAISSANCE,390,ORCHARD ROAD,PALAIS RENAISSANCE,390 ORCHARD ROAD PALAIS RENAISSANCE SINGAPORE 238871,238871,27584.8261186667,32108.7723720502,1.30665484543191,103.829588045188,103.829588045188
People's Park Centre,PEOPLE'S PARK CENTRE,101,UPPER CROSS STREET,PEOPLE'S PARK CENTRE,101 UPPER CROSS STREET PEOPLE'S PARK CENTRE SINGAPORE 058357,058357,29186.540773402,29799.4470430557,1.28577009981805,103.843980122838,103.843980122838
People's Park Complex,PEOPLE'S PARK COMPLEX,1,PARK ROAD,PEOPLE'S PARK COMPLEX,1 PARK ROAD PEOPLE'S PARK COMPLEX SINGAPORE 059108,059108,29024.0389001919,29618.5318235587,1.28413397178419,103.842519972666,103.842519972666
Plaza Singapura,PLAZA SINGAPURA,68,ORCHARD ROAD,PLAZA SINGAPURA,68 ORCHARD ROAD PLAZA SINGAPURA SINGAPORE 238839,238839,29305.3314708741,31455.5944289882,1.30074770963916,103.845047573431,103.845047573431
GR.ID,GR.ID,1,SELEGIE ROAD,GR.ID,1 SELEGIE ROAD GR.ID SINGAPORE 188306,188306,29774.5964836003,31384.8907496594,1.30010826723486,103.849264127911,103.849264127911
Raffles City,RAFFLES CITY SHOPPING CENTRE,252,NORTH BRIDGE ROAD,RAFFLES CITY SHOPPING CENTRE,252 NORTH BRIDGE ROAD RAFFLES CITY SHOPPING CENTRE SINGAPORE 179103,179103,30203.7152231745,30697.7055161726,1.29389357863312,103.853119904656,103.853119904656
Scotts Square,SCOTTS SQUARE,6,SCOTTS ROAD,SCOTTS SQUARE,6 SCOTTS ROAD SCOTTS SQUARE SINGAPORE 228209,228209,27972.8591879476,32014.1846202537,1.30579942993543,103.833074706219,103.833074706219
Serangoon Plaza,SERANGOON PLAZA,320,SERANGOON ROAD,SERANGOON PLAZA,320 SERANGOON ROAD SERANGOON PLAZA SINGAPORE 218108,218108,30429.2770807138,32565.0041423272,1.31078075190145,103.855146819671,103.855146819671
Shaw House,SHAW HOUSE,350,ORCHARD ROAD,SHAW HOUSE,350 ORCHARD ROAD SHAW HOUSE SINGAPORE 238868,238868,27798.4286418194,32015.3331086282,1.30580981580562,103.831507365654,103.831507365654
Sim Lim Square,SIM LIM SQUARE,1,ROCHOR CANAL ROAD,SIM LIM SQUARE,1 ROCHOR CANAL ROAD SIM LIM SQUARE SINGAPORE 188504,188504,30194.5713863662,31707.3292541914,1.3030242605718,103.853037814067,103.853037814067
Singapore Shopping Centre,SINGAPORE SHOPPING CENTRE,190,CLEMENCEAU AVENUE,SINGAPORE SHOPPING CENTRE,190 CLEMENCEAU AVENUE SINGAPORE SHOPPING CENTRE SINGAPORE 239924,239924,29201.1359043466,31168.6460736729,1.29815265394505,103.844111318107,103.844111318107
South Beach,SOUTH BEACH,36,BEACH ROAD,SOUTH BEACH,36 BEACH ROAD SOUTH BEACH SINGAPORE 189766,189766,30543.97085525,30906.411133578,1.29578101285494,103.856177264026,103.856177264026
Square 2,SQUARE 2,10,SINARAN DRIVE,SQUARE 2,10 SINARAN DRIVE SQUARE 2 SINGAPORE 307506,307506,29206.6219763951,33662.3806673996,1.32070510956845,103.844160709661,103.844160709661
Sunshine Plaza,SUNSHINE PLAZA,10,PRINSEP LINK,SUNSHINE PLAZA,10 PRINSEP LINK SUNSHINE PLAZA SINGAPORE 187948,187948,29918.3768824488,31424.5976224914,1.30046735366415,103.850556061949,103.850556061949
Suntec City,SUNTEC CITY MALL,3,TEMASEK BOULEVARD,SUNTEC CITY MALL,3 TEMASEK BOULEVARD SUNTEC CITY MALL SINGAPORE 038983,038983,30859.7197721638,30923.0979032703,1.29593189477195,103.859014406736,103.859014406736
Tanglin Mall,TANGLIN MALL,163,TANGLIN ROAD,TANGLIN MALL,163 TANGLIN ROAD TANGLIN MALL SINGAPORE 247933,247933,26946.5451086154,31908.4783786591,1.30484344196915,103.823852794772,103.823852794772
Tangs,DBS TANGS ORCHARD,320,ORCHARD ROAD,DBS TANGS ORCHARD,320 ORCHARD ROAD DBS TANGS ORCHARD SINGAPORE 238865,238865,27961.3321106369,31920.2651855387,1.30495005564842,103.832971130126,103.832971130126
Tanjong Pagar Centre,TANJONG PAGAR CENTRE,5,WALLICH STREET,TANJONG PAGAR CENTRE,5 WALLICH STREET TANJONG PAGAR CENTRE SINGAPORE 078883,078883,29404.2523569511,28783.6531160194,1.27658360696843,103.845936303594,103.845936303594
Tekka Centre,ZHUJIAO CENTRE (TEKKA MARKET),665,BUFFALO ROAD,ZHUJIAO CENTRE (TEKKA MARKET),665 BUFFALO ROAD ZHUJIAO CENTRE (TEKKA MARKET) SINGAPORE 210665,210665,29924.3737569908,32056.0217537805,1.30617773048079,103.850609985486,103.850609985486
Adelphi,ADELPHI PARK ESTATE,2,ORCHID DRIVE,ADELPHI PARK ESTATE,2 ORCHID DRIVE ADELPHI PARK ESTATE SINGAPORE 576158,576158,27585.8253556136,37426.8268734626,1.35474944653942,103.829596951438,103.829596951438
Paragon,PARAGON MEDICAL,290,ORCHARD ROAD,PARAGON MEDICAL,290 ORCHARD ROAD PARAGON MEDICAL SINGAPORE 238859,238859,28291.8472634079,31835.3515958935,1.30418212572574,103.835940962553,103.835940962553
Tiong Bahru Plaza,TIONG BAHRU PLAZA,302,TIONG BAHRU ROAD,TIONG BAHRU PLAZA,302 TIONG BAHRU ROAD TIONG BAHRU PLAZA SINGAPORE 168732,168732,27298.4929601206,29875.6088268161,1.28645889472825,103.827015256194,103.827015256194
Poiz,THE POIZ CENTRE,51,UPPER SERANGOON ROAD,THE POIZ CENTRE,51 UPPER SERANGOON ROAD THE POIZ CENTRE SINGAPORE 347697,347697,31883.5016925149,34855.7263145093,1.33149708073624,103.86821402533,103.86821402533
Thomson Plaza,THOMSON PLAZA,301,UPPER THOMSON ROAD,THOMSON PLAZA,301 UPPER THOMSON ROAD THOMSON PLAZA SINGAPORE 574408,574408,27733.0413219538,37417.9340793099,1.35466902496424,103.830919782333,103.830919782333
United Square,UNITED SQUARE,101,THOMSON ROAD,UNITED SQUARE,101 THOMSON ROAD UNITED SQUARE SINGAPORE 307591,307591,29145.4956319379,33274.1963187363,1.31719450988559,103.843611443038,103.843611443038
Velocity Novena Square,VELOCITY @ NOVENA SQUARE,238B,THOMSON ROAD,VELOCITY @ NOVENA SQUARE,238B THOMSON ROAD VELOCITY @ NOVENA SQUARE SINGAPORE 307685,307685,29210.0329662841,33506.505000649,1.31929542501907,103.844191353077,103.844191353077
Wheelock Place,WHEELOCK PLACE,501,ORCHARD ROAD,WHEELOCK PLACE,501 ORCHARD ROAD WHEELOCK PLACE SINGAPORE 238880,238880,27702.1243623979,31889.9934485909,1.30467628730252,103.830642027577,103.830642027577
Wisma Atria,WISMA ATRIA,435,ORCHARD ROAD,WISMA ATRIA,435 ORCHARD ROAD WISMA ATRIA SINGAPORE 238877,238877,27987.4434526861,31782.5683790036,1.30370477426147,103.833205752808,103.833205752808
Zhongshan Mall,ZHONGSHAN MALL,20,AH HOOD ROAD,ZHONGSHAN MALL,20 AH HOOD ROAD ZHONGSHAN MALL SINGAPORE 329984,329984,29473.0098957308,34352.36196642,1.32694504456951,103.846554377679,103.846554377679
Century Square,CENTURY SQUARE,2,TAMPINES CENTRAL 5,CENTURY SQUARE,2 TAMPINES CENTRAL 5 CENTURY SQUARE SINGAPORE 529509,529509,40296.7094797157,37163.8108075112,1.35236829566862,103.943812302253,103.943812302253
Tampines 1,TAMPINES PLAZA 1,3,TAMPINES CENTRAL 1,TAMPINES PLAZA 1,3 TAMPINES CENTRAL 1 TAMPINES PLAZA 1 SINGAPORE 529540,529540,40195.5757618845,37200.6616842039,1.35270160272274,103.942903567808,103.942903567808
Tampines Mall,TAMPINES MALL,4,TAMPINES CENTRAL 5,TAMPINES MALL,4 TAMPINES CENTRAL 5 TAMPINES MALL SINGAPORE 529510,529510,40395.3605872542,37181.4052837677,1.35252737278519,103.944698751072,103.944698751072
Our Tampines Hub,OUR TAMPINES HUB,1,TAMPINES WALK,OUR TAMPINES HUB,1 TAMPINES WALK OUR TAMPINES HUB SINGAPORE 528523,528523,39917.8597772308,37248.4172376581,1.35313359828812,103.940408135311,103.940408135311
Changi Airport,CHANGI AIRPORT BUS TERMINAL 1,80,AIRPORT BOULEVARD,CHANGI AIRPORT BUS TERMINAL 1,80 AIRPORT BOULEVARD CHANGI AIRPORT BUS TERMINAL 1 SINGAPORE 819642,819642,45504.218736439,38150.7544729207,1.36129123176598,103.99060554697,103.99060554697
Changi City Point,CHANGI CITY POINT,5,CHANGI BUSINESS PARK CENTRAL 1,CHANGI CITY POINT,5 CHANGI BUSINESS PARK CENTRAL 1 CHANGI CITY POINT SINGAPORE 486038,486038,42423.0269516231,35136.8611284606,1.33403637902708,103.962917615531,103.962917615531
Downtown East,DOWNTOWN EAST,1,PASIR RIS CLOSE,DOWNTOWN EAST,1 PASIR RIS CLOSE DOWNTOWN EAST SINGAPORE 519599,519599,41545.7286940152,39878.0294110253,1.37691412455433,103.955036748549,103.955036748549
Djitsun Mall Bedok,DJITSUN MALL BEDOK,445,BEDOK NORTH STREET 1,DJITSUN MALL BEDOK,445 BEDOK NORTH STREET 1 DJITSUN MALL BEDOK SINGAPORE 469661,469661,38710.0881669372,34261.3041274194,1.32611970329469,103.929554495615,103.929554495615
Eastpoint Mall,EASTPOINT MALL,3,SIMEI STREET 6,EASTPOINT MALL,3 SIMEI STREET 6 EASTPOINT MALL SINGAPORE 528833,528833,41321.990633836,36095.4413322229,1.34270592355576,103.953024618234,103.953024618234
Bedok Mall,BEDOK MALL,311,NEW UPPER CHANGI ROAD,BEDOK MALL,311 NEW UPPER CHANGI ROAD BEDOK MALL SINGAPORE 467360,467360,38676.9034392368,34108.3360637221,1.32473632784728,103.929256259998,103.929256259998
Bedok Point,JEET'S LITTLE LEARNERS (BEDOK) PTE. LTD.,327,BEDOK ROAD,JEET'S LITTLE LEARNERS (BEDOK) PTE. LTD.,327 BEDOK ROAD JEET'S LITTLE LEARNERS (BEDOK) PTE. LTD. SINGAPORE 469498,469498,40738.2093682978,34751.1049379874,1.33054849915481,103.947778439395,103.947778439395
Paya Lebar Square,PAYA LEBAR SQUARE,60,PAYA LEBAR ROAD,PAYA LEBAR SQUARE,60 PAYA LEBAR ROAD PAYA LEBAR SQUARE SINGAPORE 409051,409051,34595.3032159209,33453.443530187,1.31881487007651,103.892580778514,103.892580778514
Singapore Post Centre,SINGAPORE POST CENTRE,10,EUNOS ROAD 8,SINGAPORE POST CENTRE,10 EUNOS ROAD 8 SINGAPORE POST CENTRE SINGAPORE 408600,408600,34852.8436825443,33473.5521862414,1.31899666903663,103.894894915962,103.894894915962
PLQ Mall,PLQ MALL,10,PAYA LEBAR ROAD,PLQ MALL,10 PAYA LEBAR ROAD PLQ MALL SINGAPORE 409057,409057,34623.78747709,33314.8152264543,1.31756115921,103.892836694432,103.892836694432
kinex,KINEX,11,TANJONG KATONG ROAD,KINEX,11 TANJONG KATONG ROAD KINEX SINGAPORE 437157,437157,34835.3929186761,32989.4359148927,1.31461849889242,103.894738004768,103.894738004768
Katong Shopping Centre,KATONG SHOPPING CENTRE,865,MOUNTBATTEN ROAD,KATONG SHOPPING CENTRE,865 MOUNTBATTEN ROAD KATONG SHOPPING CENTRE SINGAPORE 437844,437844,35589.7415065095,31826.0758814793,1.3040973115095,103.901515916971,103.901515916971
Roxy Square,ROXY SQUARE,50,EAST COAST ROAD,ROXY SQUARE,50 EAST COAST ROAD ROXY SQUARE SINGAPORE 428769,428769,35871.8859393252,31851.3707749359,1.30432599904899,103.904051120306,103.904051120306
i12 Katong,UOB I12 KATONG AUTOLOBBY,112,EAST COAST ROAD,UOB I12 KATONG AUTOLOBBY,112 EAST COAST ROAD UOB I12 KATONG AUTOLOBBY SINGAPORE 428802,428802,35982.3737051114,31950.5665851086,1.30522306203042,103.905043928938,103.905043928938
Parkway Parade,PARKWAY PARADE,80,MARINE PARADE ROAD,PARKWAY PARADE,80 MARINE PARADE ROAD PARKWAY PARADE SINGAPORE 449269,449269,36008.6027896181,31491.3156742603,1.30106975506311,103.905279491524,103.905279491524
White Sands,WHITE SANDS,1,PASIR RIS CENTRAL STREET 3,WHITE SANDS,1 PASIR RIS CENTRAL STREET 3 WHITE SANDS SINGAPORE 518457,518457,40953.5843543084,39384.358354453,1.37244981663527,103.949715694737,103.949715694737
City Plaza,CITY PLAZA,810,GEYLANG ROAD,CITY PLAZA,810 GEYLANG ROAD CITY PLAZA SINGAPORE 409286,409286,34694.5110424841,33008.0531160496,1.3147868971977,103.893472115119,103.893472115119
Katong Square,KATONG SQUARE,86,EAST COAST ROAD,KATONG SQUARE,86 EAST COAST ROAD KATONG SQUARE SINGAPORE 428788,428788,35900.378342581,31940.8380616587,1.30513510179213,103.904307160288,103.904307160288
Katong V,KATONG V,30,EAST COAST ROAD,KATONG V,30 EAST COAST ROAD KATONG V SINGAPORE 428751,428751,35738.2548797037,31798.767077459,1.30385030375719,103.902850370889,103.902850370889
Kallang Wave Mall,KALLANG WAVE MALL,1,STADIUM PLACE,KALLANG WAVE MALL,1 STADIUM PLACE KALLANG WAVE MALL SINGAPORE 397628,397628,32432.8422906362,31712.9829503335,1.30307515150401,103.873149707591,103.873149707591
Leisure Park Kallang,LEISURE PARK KALLANG,5,STADIUM WALK,LEISURE PARK KALLANG,5 STADIUM WALK LEISURE PARK KALLANG SINGAPORE 397693,397693,32802.8046472063,31627.3966244832,1.30230108405227,103.876473975883,103.876473975883
Elias Mall,ELIAS MALL,623,ELIAS ROAD,ELIAS MALL,623 ELIAS ROAD ELIAS MALL SINGAPORE 510623,510623,40135.4393923711,39979.0977802798,1.37782876616465,103.942364336974,103.942364336974
Loyang Point,LOYANG POINT,258,PASIR RIS STREET 21,LOYANG POINT,258 PASIR RIS STREET 21 LOYANG POINT SINGAPORE 510258,510258,42613.6482054582,38789.9653154314,1.36707357525622,103.964632225014,103.964632225014
Jewel Changi Airport,JEWEL CHANGI AIRPORT,78,AIRPORT BOULEVARD,JEWEL CHANGI AIRPORT,78 AIRPORT BOULEVARD JEWEL CHANGI AIRPORT SINGAPORE 819666,819666,45334.1767452694,38045.6719939336,1.3603410066102,103.98907755021,103.98907755021
888 Plaza,888 PLAZA,888,WOODLANDS DRIVE 50,888 PLAZA,888 WOODLANDS DRIVE 50 888 PLAZA SINGAPORE 730888,730888,23770.7139348229,46535.313734604,1.43712301500434,103.795314383823,103.795314383823
Admiralty Place,ADMIRALTY PLACE,677,WOODLANDS AVENUE 6,ADMIRALTY PLACE,677 WOODLANDS AVENUE 6 ADMIRALTY PLACE SINGAPORE 730677,730677,24482.0590426456,46785.5494471099,1.43938615380542,103.801706470491,103.801706470491
AMK Hub,AMK HUB,53,ANG MO KIO AVENUE 3,AMK HUB,53 ANG MO KIO AVENUE 3 AMK HUB SINGAPORE 569933,569933,29687.0565410079,39045.6241728477,1.36938922690344,103.84847796594,103.84847796594
Canberra Plaza,CANBERRA PLAZA,133,CANBERRA VIEW,CANBERRA PLAZA,133 CANBERRA VIEW CANBERRA PLAZA SINGAPORE 750133,750133,27669.1282042367,47239.9100809004,1.44349544527985,103.830345369213,103.830345369213
Causeway Point,CAUSEWAY POINT,1,WOODLANDS SQUARE,CAUSEWAY POINT,1 WOODLANDS SQUARE CAUSEWAY POINT SINGAPORE 738099,738099,22732.1066652434,46418.9031902999,1.4360700650803,103.785981524253,103.785981524253
Woodlands Civic Centre,WOODLANDS CIVIC CENTRE,900,SOUTH WOODLANDS DRIVE,WOODLANDS CIVIC CENTRE,900 SOUTH WOODLANDS DRIVE WOODLANDS CIVIC CENTRE SINGAPORE 730900,730900,22837.7549436502,46302.6016107351,1.43501829566013,103.786930895956,103.786930895956
Broadway Plaza,BROADWAY PLAZA,4190,ANG MO KIO AVENUE 6,BROADWAY PLAZA,4190 ANG MO KIO AVENUE 6 BROADWAY PLAZA SINGAPORE 569841,569841,29405.6611802531,39327.374546783,1.37193729131781,103.845949444498,103.845949444498
Djitsun Mall,DJITSUN MALL BEDOK,445,BEDOK NORTH STREET 1,DJITSUN MALL BEDOK,445 BEDOK NORTH STREET 1 DJITSUN MALL BEDOK SINGAPORE 469661,469661,38710.0881669372,34261.3041274194,1.32611970329469,103.929554495615,103.929554495615
Jubilee Square,JUBILEE SQUARE,61,ANG MO KIO AVENUE 8,JUBILEE SQUARE,61 ANG MO KIO AVENUE 8 JUBILEE SQUARE SINGAPORE 569814,569814,29615.7860936848,39310.6009079777,1.37178558575829,103.847837565378,103.847837565378
Junction 9,DBS JUNCTION NINE,18,YISHUN AVENUE 9,DBS JUNCTION NINE,18 YISHUN AVENUE 9 DBS JUNCTION NINE SINGAPORE 768897,768897,28927.0907904897,46086.0364270695,1.43306021695327,103.841649364872,103.841649364872
Marsiling Mall,MARSILING MALL HAWKER CENTRE,4,WOODLANDS STREET 12,MARSILING MALL HAWKER CENTRE,4 WOODLANDS STREET 12 MARSILING MALL HAWKER CENTRE SINGAPORE 738623,738623,22053.3037563628,46139.5079379082,1.43354318137534,103.77988189197,103.77988189197
Northpoint City,NORTHPOINT CITY,930,YISHUN AVENUE 2,NORTHPOINT CITY,930 YISHUN AVENUE 2 NORTHPOINT CITY SINGAPORE 769098,769098,28273.5290191257,45714.3116263431,1.42969848626288,103.835776491468,103.835776491468
Sembawang Shopping Centre,SEMBAWANG SHOPPING CENTRE,604,SEMBAWANG ROAD,SEMBAWANG SHOPPING CENTRE,604 SEMBAWANG ROAD SEMBAWANG SHOPPING CENTRE SINGAPORE 758459,758459,27057.045284275,47055.1697449628,1.44182470675733,103.824845207237,103.824845207237
Sun Plaza,SUN PLAZA,30,SEMBAWANG DRIVE,SUN PLAZA,30 SEMBAWANG DRIVE SUN PLAZA SINGAPORE 757713,757713,26462.4476639526,47759.6068513971,1.44819535371132,103.819502127155,103.819502127155
Vista Point,VISTA POINT,548,WOODLANDS DRIVE 44,VISTA POINT,548 WOODLANDS DRIVE 44 VISTA POINT SINGAPORE 730548,730548,23616.35523888,45846.8909037989,1.43089714603015,103.793927429476,103.793927429476
Wisteria Mall,WISTERIA MALL,598,YISHUN RING ROAD,WISTERIA MALL,598 YISHUN RING ROAD WISTERIA MALL SINGAPORE 768698,768698,28884.7489383351,44415.5435907897,1.41795288501536,103.841268831617,103.841268831617
Woodlands Mart,WOODLANDS MART,768,WOODLANDS AVENUE 6,WOODLANDS MART,768 WOODLANDS AVENUE 6 WOODLANDS MART SINGAPORE 730768,730768,24085.287001106,47475.1842685193,1.44562290720221,103.798140993891,103.798140993891
Woodlands North Plaza,WOODLANDS NORTH PLAZA,883,WOODLANDS STREET 82,WOODLANDS NORTH PLAZA,883 WOODLANDS STREET 82 WOODLANDS NORTH PLAZA SINGAPORE 730883,730883,23240.3015716588,47157.8955284692,1.44275333260237,103.790548015512,103.790548015512
Waterway Point,WATERWAY POINT,83,PUNGGOL CENTRAL,WATERWAY POINT,83 PUNGGOL CENTRAL WATERWAY POINT SINGAPORE 828761,828761,35655.0554567808,43147.5521318838,1.40648462132006,103.902105680785,103.902105680785
Compass One,COMPASS ONE,1,SENGKANG SQUARE,COMPASS ONE,1 SENGKANG SQUARE COMPASS ONE SINGAPORE 545078,545078,34872.1834410084,41551.7693360616,1.39205314156706,103.89507054384,103.89507054384
Hougang Mall,HOUGANG MALL,90,HOUGANG AVENUE 10,HOUGANG MALL,90 HOUGANG AVENUE 10 HOUGANG MALL SINGAPORE 538766,538766,34728.1240016175,39389.1175711397,1.37249493810003,103.893775562605,103.893775562605
Heartland Mall,HEARTLAND MALL-KOVAN,205,HOUGANG STREET 21,HEARTLAND MALL-KOVAN,205 HOUGANG STREET 21 HEARTLAND MALL-KOVAN SINGAPORE 530205,530205,33770.1681960914,37956.7995033581,1.35954177325561,103.885167372726,103.885167372726
NEX,NEX,23,SERANGOON CENTRAL,NEX,23 SERANGOON CENTRAL NEX SINGAPORE 556083,556083,32337.7653476875,36986.7628374919,1.35076935257845,103.872296143862,103.872296143862
Greenwich V,GREENWICH V,1,SELETAR ROAD,GREENWICH V,1 SELETAR ROAD GREENWICH V SINGAPORE 807011,807011,31986.0138748605,41036.6794434916,1.38739539397015,103.869135978173,103.869135978173
Hougang 1,HOUGANG 1,1,HOUGANG STREET 91,HOUGANG 1,1 HOUGANG STREET 91 HOUGANG 1 SINGAPORE 538692,538692,33136.3424516348,39745.1742408983,1.37571530699875,103.879472337592,103.879472337592
Hougang Green Shopping Mall,HOUGANG GREEN SHOPPING MALL,21,HOUGANG STREET 51,HOUGANG GREEN SHOPPING MALL,21 HOUGANG STREET 51 HOUGANG GREEN SHOPPING MALL SINGAPORE 538719,538719,34066.6627102559,40135.5216910187,1.3792452907016,103.887832017102,103.887832017102
myVillage At Serangoon Garden,MYVILLAGE AT SERANGOON GARDEN,1,MAJU AVENUE,MYVILLAGE AT SERANGOON GARDEN,1 MAJU AVENUE MYVILLAGE AT SERANGOON GARDEN SINGAPORE 556679,556679,31543.5162021946,38573.0096142385,1.36511490572797,103.865159501442,103.865159501442
Oasis Terraces,OASIS TERRACES,681,PUNGGOL DRIVE,OASIS TERRACES,681 PUNGGOL DRIVE OASIS TERRACES SINGAPORE 820681,820681,36891.3954429701,42737.9701953474,1.40278015725693,103.913215101343,103.913215101343
Punggol Plaza,PUNGGOL PLAZA,168,PUNGGOL FIELD,PUNGGOL PLAZA,168 PUNGGOL FIELD PUNGGOL PLAZA SINGAPORE 820168,820168,36872.7560856491,41793.3313643504,1.39423719717117,103.913047323223,103.913047323223
Rivervale Mall,RIVERVALE MALL,11,RIVERVALE CRESCENT,RIVERVALE MALL,11 RIVERVALE CRESCENT RIVERVALE MALL SINGAPORE 545082,545082,35918.3976602554,41567.7920261901,1.39219777838449,103.904471600025,103.904471600025
Rivervale Plaza,RIVERVALE PLAZA,118,RIVERVALE DRIVE,RIVERVALE PLAZA,118 RIVERVALE DRIVE RIVERVALE PLAZA SINGAPORE 540118,540118,35625.6731445352,40809.1926632598,1.38533736107771,103.901841044122,103.901841044122
Seletar Mall,THE SELETAR MALL,33,SENGKANG WEST AVENUE,THE SELETAR MALL,33 SENGKANG WEST AVENUE THE SELETAR MALL SINGAPORE 797653,797653,32763.8501456464,41487.2587586138,1.39147015374628,103.876125507257,103.876125507257
Buangkok Square,BUANGKOK SQUARE,991,BUANGKOK LINK,BUANGKOK SQUARE,991 BUANGKOK LINK BUANGKOK SQUARE SINGAPORE 530991,530991,33375.6730938945,40698.2200346421,1.38433426615655,103.881623070164,103.881623070164
Midtown,MIDTOWN BAY,122,BEACH ROAD,MIDTOWN BAY,122 BEACH ROAD MIDTOWN BAY SINGAPORE 189770,189770,30676.5743168239,30970.0649454799,1.29635666439809,103.85736876917,103.85736876917
Upper Serangoon Shopping Centre,UPPER SERANGOON SHOPPING CENTRE,756,UPPER SERANGOON ROAD,UPPER SERANGOON SHOPPING CENTRE,756 UPPER SERANGOON ROAD UPPER SERANGOON SHOPPING CENTRE SINGAPORE 534626,534626,33064.697135333,37286.5960918665,1.35348082277147,103.878828134896,103.878828134896
Beauty World Centre,BEAUTY WORLD CENTRE,144,UPPER BUKIT TIMAH ROAD,BEAUTY WORLD CENTRE,144 UPPER BUKIT TIMAH ROAD BEAUTY WORLD CENTRE SINGAPORE 588177,588177,21681.0911870794,36062.7591135893,1.34241264188642,103.776539385406,103.776539385406
Beauty World Plaza,BEAUTY WORLD PLAZA,140,UPPER BUKIT TIMAH ROAD,BEAUTY WORLD PLAZA,140 UPPER BUKIT TIMAH ROAD BEAUTY WORLD PLAZA SINGAPORE 588176,588176,21649.9257879127,35995.0375873558,1.34180018619223,103.776259359854,103.776259359854
Bukit Panjang Plaza,BUKIT PANJANG PLAZA,1,JELEBU ROAD,BUKIT PANJANG PLAZA,1 JELEBU ROAD BUKIT PANJANG PLAZA SINGAPORE 677743,677743,20325.461808118,40210.2194124069,1.37992045176243,103.764357180314,103.764357180314
Bukit Timah Plaza,BUKIT TIMAH PLAZA,1,JALAN ANAK BUKIT,BUKIT TIMAH PLAZA,1 JALAN ANAK BUKIT BUKIT TIMAH PLAZA SINGAPORE 588996,588996,21910.4149615103,35658.7866516709,1.33875930729064,103.778600077834,103.778600077834
Fajar Shopping Centre,FAJAR SHOPPING CENTRE,445,FAJAR ROAD,FAJAR SHOPPING CENTRE,445 FAJAR ROAD FAJAR SHOPPING CENTRE SINGAPORE 670445,670445,21038.9723480316,40614.8899751026,1.38358032362676,103.770768501474,103.770768501474
Greenridge Shopping Centre,GREENRIDGE SHOPPING CENTRE,524A,JELAPANG ROAD,GREENRIDGE SHOPPING CENTRE,524A JELAPANG ROAD GREENRIDGE SHOPPING CENTRE SINGAPORE 671524,671524,20533.7299018195,40816.7439803742,1.38540569283271,103.766228468185,103.766228468185
Hillion Mall,HILLION MALL,17,PETIR ROAD,HILLION MALL,17 PETIR ROAD HILLION MALL SINGAPORE 678278,678278,20156.924196275,40045.5291337073,1.37843100827586,103.762842789877,103.762842789877
HillV2,HILLV2,4,HILLVIEW RISE,HILLV2,4 HILLVIEW RISE HILLV2 SINGAPORE 667979,667979,20304.9008575827,38303.2499323208,1.36267450828024,103.76417292006,103.76417292006
Junction 10,JUNCTION 10,1,WOODLANDS ROAD,JUNCTION 10,1 WOODLANDS ROAD JUNCTION 10 SINGAPORE 677899,677899,19859.2468093075,40256.2722101696,1.38033681049385,103.760167883439,103.760167883439
Keat Hong Shopping Centre,KEAT HONG SHOPPING CENTRE,253,CHOA CHU KANG AVENUE 1,KEAT HONG SHOPPING CENTRE,253 CHOA CHU KANG AVENUE 1 KEAT HONG SHOPPING CENTRE SINGAPORE 680253,680253,18103.7591441153,39927.8427333515,1.37736607441394,103.744393648768,103.744393648768
Limbang Shopping Centre,LIMBANG SHOPPING CENTRE,533A,CHOA CHU KANG STREET 51,LIMBANG SHOPPING CENTRE,533A CHOA CHU KANG STREET 51 LIMBANG SHOPPING CENTRE SINGAPORE 681533,681533,17991.8168503707,41507.1441277526,1.39164865474084,103.743387228295,103.743387228295
Lot One,"LOT ONE, SHOPPERS' MALL",21,CHOA CHU KANG AVENUE 4,"LOT ONE, SHOPPERS' MALL","21 CHOA CHU KANG AVENUE 4 LOT ONE, SHOPPERS' MALL SINGAPORE 689812",689812,18172.5792770851,40769.1529334113,1.38497459672379,103.745011766388,103.745011766388
Rail Mall,THE RAIL MALL,452,UPPER BUKIT TIMAH ROAD,THE RAIL MALL,452 UPPER BUKIT TIMAH ROAD THE RAIL MALL SINGAPORE 678206,678206,20684.6500337403,37981.0361372996,1.35976061966283,103.767585300058,103.767585300058
Sunshine Place,SUNSHINE PLACE,475,CHOA CHU KANG AVENUE 3,SUNSHINE PLACE,475 CHOA CHU KANG AVENUE 3 SUNSHINE PLACE SINGAPORE 680475,680475,17505.2381877424,39986.603392737,1.37789727599928,103.739015486021,103.739015486021
Teck Whye Shopping Centre,TECK WHYE SHOPPING CENTRE,137,TECK WHYE LANE,TECK WHYE SHOPPING CENTRE,137 TECK WHYE LANE TECK WHYE SHOPPING CENTRE SINGAPORE 680137,680137,19004.1078333827,40224.3126699142,1.38004752975397,103.752483841199,103.752483841199
West Mall,WEST MALL,1,BUKIT BATOK CENTRAL LINK,WEST MALL,1 BUKIT BATOK CENTRAL LINK WEST MALL SINGAPORE 658713,658713,18643.5269172937,36903.9429145474,1.35001920979845,103.749244800677,103.749244800677
Yew Tee Point,UOB YEW TEE POINT,21,CHOA CHU KANG NORTH 6,UOB YEW TEE POINT,21 CHOA CHU KANG NORTH 6 UOB YEW TEE POINT SINGAPORE 689578,689578,18356.2918939041,42105.204496216,1.39705741516141,103.746662121143,103.746662121143
Yew Tee Square,YEW TEE SQUARE,624,CHOA CHU KANG STREET 62,YEW TEE SQUARE,624 CHOA CHU KANG STREET 62 YEW TEE SQUARE SINGAPORE 680624,680624,18403.3321240991,42214.6661470886,1.39804736153015,103.747084778932,103.747084778932
VivoCity,VIVOCITY,1,HARBOURFRONT WALK,VIVOCITY,1 HARBOURFRONT WALK VIVOCITY SINGAPORE 098585,098585,26774.2363178767,27424.6391711198,1.26429316783973,103.82230469365,103.82230469365
HarbourFront Centre,HARBOURFRONT CENTRE,1,MARITIME SQUARE,HARBOURFRONT CENTRE,1 MARITIME SQUARE HARBOURFRONT CENTRE SINGAPORE 099253,099253,26544.8211341351,27388.8962539714,1.26396991176004,103.820243325181,103.820243325181
Alexandra Retail Centre,ALEXANDRA RETAIL CENTRE (ARC),460,ALEXANDRA ROAD,ALEXANDRA RETAIL CENTRE (ARC),460 ALEXANDRA ROAD ALEXANDRA RETAIL CENTRE (ARC) SINGAPORE 119963,119963,24447.647553565,28514.458416285,1.27414893629254,103.801399416665,103.801399416665
321 Clementi,321 CLEMENTI,321,CLEMENTI AVENUE 3,321 CLEMENTI,321 CLEMENTI AVENUE 3 321 CLEMENTI SINGAPORE 129905,129905,20395.3064215332,32700.1500842664,1.31200212030821,103.764986676365,103.764986676365
Clementi Mall,THE CLEMENTI MALL,3155,COMMONWEALTH AVENUE WEST,THE CLEMENTI MALL,3155 COMMONWEALTH AVENUE WEST THE CLEMENTI MALL SINGAPORE 129588,129588,20332.589403728,33020.1640930343,1.31489619639366,103.764423054189,103.764423054189
IMM,IMM BUILDING,2,JURONG EAST STREET 21,IMM BUILDING,2 JURONG EAST STREET 21 IMM BUILDING SINGAPORE 609601,609601,18371.5060051158,35245.7317969501,1.3350228681678,103.746801051271,103.746801051271
JCube,JCUBE,2,JURONG EAST CENTRAL 1,JCUBE,2 JURONG EAST CENTRAL 1 JCUBE SINGAPORE 609731,609731,17635.4316216484,35057.8095997591,1.33332312550425,103.740187071348,103.740187071348
Jem,JEM,50,JURONG GATEWAY ROAD,JEM,50 JURONG GATEWAY ROAD JEM SINGAPORE 608549,608549,17979.5026238747,35054.5037911125,1.33329334473462,103.743278742341,103.743278742341
Westgate,WESTGATE,3,GATEWAY DRIVE,WESTGATE,3 GATEWAY DRIVE WESTGATE SINGAPORE 608532,608532,17922.4971140614,35150.0792780221,1.33415767556867,103.742766484424,103.742766484424
Jurong Point,JURONG POINT,1,JURONG WEST CENTRAL 2,JURONG POINT,1 JURONG WEST CENTRAL 2 JURONG POINT SINGAPORE 648886,648886,13907.0305282837,35735.7564695235,1.33945271661445,103.70668501289,103.70668501289
Pioneer Mall,PIONEER MALL,638,JURONG WEST STREET 61,PIONEER MALL,638 JURONG WEST STREET 61 PIONEER MALL SINGAPORE 640638,640638,12848.6614737436,35983.4657739643,1.34169239214292,103.697174842118,103.697174842118
Star Vista,THE STAR VISTA,1,VISTA EXCHANGE GREEN,THE STAR VISTA,1 VISTA EXCHANGE GREEN THE STAR VISTA SINGAPORE 138617,138617,23003.2346113659,32143.7136113811,1.30697044038323,103.788420274115,103.788420274115
Alexandra Central,ALEXANDRA CENTRAL,323,ALEXANDRA ROAD,ALEXANDRA CENTRAL,323 ALEXANDRA ROAD ALEXANDRA CENTRAL SINGAPORE 159972,159972,24894.5278183976,29985.8934036288,1.28745612377699,103.805414652014,103.805414652014
Anchorpoint,ANCHORPOINT SHOPPING CENTRE,368,ALEXANDRA ROAD,ANCHORPOINT SHOPPING CENTRE,368 ALEXANDRA ROAD ANCHORPOINT SHOPPING CENTRE SINGAPORE 159952,159952,24916.023050786,30149.3953310214,1.28893477974497,103.805607779399,103.805607779399
Boon Lay Shopping Centre,BOON LAY SHOPPING CENTRE,221,BOON LAY PLACE,BOON LAY SHOPPING CENTRE,221 BOON LAY PLACE BOON LAY SHOPPING CENTRE SINGAPORE 640221,640221,14546.4666856667,36496.7915879078,1.34633552457315,103.712430373455,103.712430373455
Grantral Mall,GRANTRAL MALL @ CLEMENTI,3151,COMMONWEALTH AVENUE WEST,GRANTRAL MALL @ CLEMENTI,3151 COMMONWEALTH AVENUE WEST GRANTRAL MALL @ CLEMENTI SINGAPORE 129581,129581,20413.2100247061,32950.9688186739,1.31427043922294,103.765147487482,103.765147487482
Fairprice Hub,FAIRPRICE HUB,1,JOO KOON CIRCLE,FAIRPRICE HUB,1 JOO KOON CIRCLE FAIRPRICE HUB SINGAPORE 629117,629117,10760.1903017079,34206.1238678284,1.32561767765205,103.678409741897,103.678409741897
Gek Poh Shopping Centre,GEK POH SHOPPING CENTRE,762,JURONG WEST STREET 75,GEK POH SHOPPING CENTRE,762 JURONG WEST STREET 75 GEK POH SHOPPING CENTRE SINGAPORE 640762,640762,12910.7207379946,36763.1478772014,1.34874357136408,103.697732091001,103.697732091001
Rochester Mall,ROCHESTER MALL,35,ROCHESTER DRIVE,ROCHESTER MALL,35 ROCHESTER DRIVE ROCHESTER MALL SINGAPORE 138639,138639,23006.1702728383,31970.9088191949,1.30540765569962,103.788446680148,103.788446680148
Taman Jurong Shopping Centre,TAMAN JURONG SHOPPING CENTRE,399,YUNG SHENG ROAD,TAMAN JURONG SHOPPING CENTRE,399 YUNG SHENG ROAD TAMAN JURONG SHOPPING CENTRE SINGAPORE 610399,610399,15440.244104865,35226.1689331774,1.33484487416514,103.720462024278,103.720462024278
West Coast Plaza,WEST COAST PLAZA,154,WEST COAST ROAD,WEST COAST PLAZA,154 WEST COAST ROAD WEST COAST PLAZA SINGAPORE 127371,127371,20522.6670748433,31781.8626809642,1.30369748971099,103.766131294678,103.766131294678
Queensway Shopping Centre,QUEENSWAY SHOPPING CENTRE,1,QUEENSWAY,QUEENSWAY SHOPPING CENTRE,1 QUEENSWAY QUEENSWAY SHOPPING CENTRE SINGAPORE 149053,149053,24669.3282080879,30003.7871697061,1.2876179255874,103.803391140455,103.803391140455
